park_name,category,subcategory,civic_no,street,address,city,province,country,latitude,longitude,name,desc,color,source,precision
CLOVERDALE PARK,NEIGHBOURHOOD PARK,PLAY AREA,65,BIRCHCLIFF AVE,65 BIRCHCLIFF AVE,KITCHENER,ONTARIO,CANADA,43.4254329,-80.5153897,"BIRCHCLIFF AVE, KITCHENER, ONTARIO, CANADA","Birchcliff Ave, Kitchener, ON N2M, Canada",,Bing Maps,street
DINISON PARK,NEIGHBOURHOOD PARK,OPEN SPACE/TRAIL,165,DINISON CRES,165 DINISON CRES,KITCHENER,ONTARIO,CANADA,43.4140182,-80.5057805,"DINISON CRES, KITCHENER, ONTARIO, CANADA","Dinison Crescent, Kitchener, ON N2E, Canada",,Bing Maps,street
EDMUND GREEN,GREEN (PARKETTE),PLAY AREA,55,EDMUND RD,55 EDMUND RD,KITCHENER,ONTARIO,CANADA,43.4409291,-80.4650844,"EDMUND RD, KITCHENER, ONTARIO, CANADA","Edmund Rd, Kitchener, ON N2H, Canada",,Bing Maps,street
LANDGREN TRAIL LINK,GREENWAY,OPEN SPACE/TRAIL,,LANDGREN CRT,LANDGREN CRT,KITCHENER,ONTARIO,CANADA,43.4461783,-80.4120359,"LANDGREN CRT, KITCHENER, ONTARIO, CANADA","Landgren Crt, Kitchener, ON N2A, Canada",,Bing Maps,street
THOMAS PEDDER OPEN SPACE,OPEN SPACE,OS-PLANTING STRIP/LANDSCAPE BUFFER,,NEW DUNDEE RD,NEW DUNDEE RD,KITCHENER,ONTARIO,CANADA,43.3867992,-80.4120023,"NEW DUNDEE RD, KITCHENER, ONTARIO, CANADA","New Dundee Rd, Kitchener, ON N2P, Canada",,Bing Maps,street
WILLIAMSBURG WOODS SOUTH,OPEN SPACE,OPEN SPACE/WOODLAND,,SEABROOK DR,SEABROOK DR,KITCHENER,ONTARIO,CANADA,43.3859006,-80.4969817,"SEABROOK DR, KITCHENER, ONTARIO, CANADA","Seabrook Dr, Kitchener, ON N2R, Canada",,Bing Maps,street
CHICOPEE PARK (GRCA),OTHER,MAJOR SPORTSFIELD,395,MORRISON RD,395 MORRISON RD,KITCHENER,ONTARIO,CANADA,43.4356588,-80.4127435,"MORRISON RD, KITCHENER, ONTARIO, CANADA","Morrison Rd, Kitchener, ON N2A, Canada",,Bing Maps,street
MICHAEL DONNENWORTH PARK,NEIGHBOURHOOD PARK,OPEN SPACE/TRAIL,94,ISAIAH DR,94 ISAIAH DR,KITCHENER,ONTARIO,CANADA,43.3995175,-80.5221823,"ISAIAH DR, KITCHENER, ONTARIO, CANADA","Isaiah Dr, Kitchener, ON N2E, Canada",,Bing Maps,street
SHUPE GREEN,GREEN (PARKETTE),PASSIVE AREA,,OTTAWA ST N & WEBER ST E,OTTAWA ST N & WEBER ST E,KITCHENER,ONTARIO,CANADA,43.444057,-80.4672757,"OTTAWA ST N & WEBER ST E, KITCHENER, ONTARIO, CANADA","Ottawa St N & Weber St E, Kitchener, ON N2H, Canada",,Bing Maps,intersection
CEDARHILL PARK,NEIGHBOURHOOD PARK,OPEN SPACE,110,CEDARHILL CRES,110 CEDARHILL CRES,KITCHENER,ONTARIO,CANADA,43.4453139,-80.4852422,"CEDARHILL CRES, KITCHENER, ONTARIO, CANADA","Cedar St S, Kitchener, ON N2G, Canada",,Bing Maps,street
ROBERT FERRIE DR - SWP,OPEN SPACE,OPEN SPACE/SWM,540,ROBERT FERRIE DR,540 ROBERT FERRIE DR,KITCHENER,ONTARIO,CANADA,43.3782108,-80.4498606,"ROBERT FERRIE DR, KITCHENER, ONTARIO, CANADA","Robert Ferrie Dr, Kitchener, ON N2R, Canada",,Bing Maps,street
GRAND RIVER NATURAL AREA - STANLEY PARK OPTIMIST,NATURAL AREA,OPEN SPACE/TRAIL,2500,VICTORIA ST N,2500 VICTORIA ST N,KITCHENER,ONTARIO,CANADA,43.4591372,-80.4807615,"VICTORIA ST N, KITCHENER, ONTARIO, CANADA","Victoria St N, Kitchener, ON N2H, Canada",,Bing Maps,street
MEINZINGER PARK NATURAL AREA (MTO),NEIGHBOURHOOD PARK,OPEN SPACE,,AVALON PL,AVALON PL,KITCHENER,ONTARIO,CANADA,43.4252182,-80.4973605,"AVALON PL, KITCHENER, ONTARIO, CANADA","Avalon Pl, Kitchener, ON N2M, Canada",,Bing Maps,street
LIONS PARK,DISTRICT PARK,MAJOR SPORTSFIELD,20,RITTENHOUSE RD,20 RITTENHOUSE RD,KITCHENER,ONTARIO,CANADA,43.4099445,-80.4831502,"RITTENHOUSE RD, KITCHENER, ONTARIO, CANADA","Rittenhouse Rd, Kitchener, ON N2E, Canada",,Bing Maps,street
SPRINGWOOD PARK,NATURAL AREA,OPEN SPACE,,WELLINGTON ST N,WELLINGTON ST N,KITCHENER,ONTARIO,CANADA,43.4547994,-80.5018131,"WELLINGTON ST N, KITCHENER, ONTARIO, CANADA","Wellington St N, Kitchener, ON N2H, Canada",,Bing Maps,street
FOREST CREEK DR (RIVER VALLEY) - SWP,OPEN SPACE,OPEN SPACE/SWM,,FOREST CREEK DR,FOREST CREEK DR,KITCHENER,ONTARIO,CANADA,43.3795521,-80.4415356,"FOREST CREEK DR, KITCHENER, ONTARIO, CANADA","Forest Creek Dr, Kitchener, ON N2R, Canada",,Bing Maps,street
ROSEMOUNT PARK,GREEN (PARKETTE),PASSIVE AREA,49,AVON RD,49 AVON RD,KITCHENER,ONTARIO,CANADA,43.4628995,-80.4563769,"AVON RD, KITCHENER, ONTARIO, CANADA","Avon Rd, Kitchener, ON N2B, Canada",,Bing Maps,street
PIONEER GROVE PARKETTE,NEIGHBOURHOOD PARK,PLAY AREA,921,PIONEER GROVE CRT,921 PIONEER GROVE CRT,KITCHENER,ONTARIO,CANADA,43.4068696,-80.3979097,"PIONEER GROVE CRT, KITCHENER, ONTARIO, CANADA","Pioneer Grove Crt, Kitchener, ON N2P, Canada",,Bing Maps,street
THISTLE DOWN GREEN - SWP,OPEN SPACE,OPEN SPACE/SWM,90,ERINBROOK DR,90 ERINBROOK DR,KITCHENER,ONTARIO,CANADA,43.411495,-80.491005,"ERINBROOK DR, KITCHENER, ONTARIO, CANADA","Erinbrook Dr, Kitchener, ON N2E, Canada",,Bing Maps,street
OKTOBERFEST PLATZ,GREEN (URBAN PLAZA),PASSIVE AREA,19,BENTON ST,19 BENTON ST,KITCHENER,ONTARIO,CANADA,43.4490476,-80.4877527,"BENTON ST, KITCHENER, ONTARIO, CANADA","Benton St, Kitchener, ON N2G, Canada",,Bing Maps,street
BRIDGEPORT SPORTSFIELD (GRCA),DISTRICT PARK,MAJOR SPORTSFIELD,70,BRIDGE ST E,70 BRIDGE ST E,KITCHENER,ONTARIO,CANADA,43.4799936,-80.4768583,"BRIDGE ST E, KITCHENER, ONTARIO, CANADA","Bridge St E, Kitchener, ON N2K, Canada",,Bing Maps,street
ARROWHEAD PARK,NEIGHBOURHOOD PARK,PLAY AREA,116,ARROWHEAD CRES,116 ARROWHEAD CRES,KITCHENER,ONTARIO,CANADA,43.3939671,-80.427383,"ARROWHEAD CRES, KITCHENER, ONTARIO, CANADA","Arrowhead Crescent, Kitchener, ON N2P, Canada",,Bing Maps,street
WATERFORD COURT NATURAL AREA,NATURAL AREA,OPEN SPACE/TRAIL,30,PINE VALLEY DR,30 PINE VALLEY DR,KITCHENER,ONTARIO,CANADA,43.3855205,-80.4321548,"PINE VALLEY DR, KITCHENER, ONTARIO, CANADA","Pine Valley Dr, Kitchener, ON N2P, Canada",,Bing Maps,street
WOODSIDE NATIONAL HISTORIC PARK (FEDERAL),OTHER,HISTORIC SITE,570,WELLINGTON ST N,570 WELLINGTON ST N,KITCHENER,ONTARIO,CANADA,43.4547994,-80.5018131,"WELLINGTON ST N, KITCHENER, ONTARIO, CANADA","Wellington St N, Kitchener, ON N2H, Canada",,Bing Maps,street
CROSBY PARK,NEIGHBOURHOOD PARK,MINOR SPORTSFIELD,60,CROSBY DR,60 CROSBY DR,KITCHENER,ONTARIO,CANADA,43.4513938,-80.4469633,"CROSBY DR, KITCHENER, ONTARIO, CANADA","Crosby Dr, Kitchener, ON N2B, Canada",,Bing Maps,street
HEARTHWOOD - SWP,OPEN SPACE,OPEN SPACE/SWM,372,HEARTHWOOD DR,372 HEARTHWOOD DR,KITCHENER,ONTARIO,CANADA,43.3816282,-80.4543802,"HEARTHWOOD DR, KITCHENER, ONTARIO, CANADA","Hearthwood Dr, Kitchener, ON N2R, Canada",,Bing Maps,street
COMMONWEALTH PARK,NEIGHBOURHOOD PARK,PLAY AREA,560,COMMONWEALTH CRES,560 COMMONWEALTH CRES,KITCHENER,ONTARIO,CANADA,43.4032755,-80.5042335,"COMMONWEALTH CRES, KITCHENER, ONTARIO, CANADA","Commonwealth Crescent, Kitchener, ON N2E, Canada",,Bing Maps,street
DUKE PARK,NEIGHBOURHOOD PARK,PLAY AREA,455,DUKE ST W,455 DUKE ST W,KITCHENER,ONTARIO,CANADA,43.4567444,-80.4973875,"DUKE ST W, KITCHENER, ONTARIO, CANADA","Duke St W, Kitchener, ON N2H, Canada",,Bing Maps,street
COLTON - SWP,OPEN SPACE,OPEN SPACE/SWM,104,COLTON CIR,104 COLTON CIR,KITCHENER,ONTARIO,CANADA,43.449533,-80.4091836,"COLTON CIR, KITCHENER, ONTARIO, CANADA","Colton Circle, Kitchener, ON N2A, Canada",,Bing Maps,street
DETWEILER PARK NATURAL AREA,NEIGHBOURHOOD PARK,OPEN SPACE/WOODLAND,465,WESTFOREST TRAIL,465 WESTFOREST TRAIL,KITCHENER,ONTARIO,CANADA,43.4312449,-80.544348,"WESTFOREST TRAIL, KITCHENER, ONTARIO, CANADA","Westforest Trail, Kitchener, ON N2N, Canada",,Bing Maps,street
FILSINGER PARK,NEIGHBOURHOOD PARK,OPEN SPACE/TRAIL,805,VICTORIA ST S,805 VICTORIA ST S,KITCHENER,ONTARIO,CANADA,43.446906,-80.5041527,"VICTORIA ST S, KITCHENER, ONTARIO, CANADA","Victoria St S, Kitchener, ON N2G, Canada",,Bing Maps,street
RIVERBEND DRIVE NATURAL AREA - SWP,OPEN SPACE,OPEN SPACE/SWM,498,RIVERBEND DR,498 RIVERBEND DR,KITCHENER,ONTARIO,CANADA,43.4668388,-80.467437,"RIVERBEND DR, KITCHENER, ONTARIO, CANADA","Riverbend Dr, Kitchener, ON N2B, Canada",,Bing Maps,street
CONCORDIA PARK NATURAL AREA,NEIGHBOURHOOD PARK,OPEN SPACE/TRAIL,250,AVALON PL,250 AVALON PL,KITCHENER,ONTARIO,CANADA,43.4252182,-80.4973605,"AVALON PL, KITCHENER, ONTARIO, CANADA","Avalon Pl, Kitchener, ON N2M, Canada",,Bing Maps,street
STEEPLERIDGE ST - SWP,OPEN SPACE,OPEN SPACE/SWM,258,STEEPLERIDGE ST,258 STEEPLERIDGE ST,KITCHENER,ONTARIO,CANADA,43.3757659,-80.4315005,"STEEPLERIDGE ST, KITCHENER, ONTARIO, CANADA","Steepleridge St, Kitchener, ON N2P, Canada",,Bing Maps,street
COUNTRYSIDE PARK,NEIGHBOURHOOD PARK,PLAY AREA,175,COUNTRYSIDE CRES,175 COUNTRYSIDE CRES,KITCHENER,ONTARIO,CANADA,43.4091304,-80.4807593,"COUNTRYSIDE CRES, KITCHENER, ONTARIO, CANADA","Countryside Crescent, Kitchener, ON N2E, Canada",,Bing Maps,street
CHARLES BEST PARK,NEIGHBOURHOOD PARK,PLAY AREA,104,STIRLING AVE S,104 STIRLING AVE S,KITCHENER,ONTARIO,CANADA,43.4410234,-80.4843618,"STIRLING AVE S, KITCHENER, ONTARIO, CANADA","Stirling Ave S, Kitchener, ON N2G, Canada",,Bing Maps,street
DOON CREEK NATURAL AREA 3,NATURAL AREA,OPEN SPACE/TRAIL,,FOREST CREEK DR,FOREST CREEK DR,KITCHENER,ONTARIO,CANADA,43.3795521,-80.4415356,"FOREST CREEK DR, KITCHENER, ONTARIO, CANADA","Forest Creek Dr, Kitchener, ON N2R, Canada",,Bing Maps,street
SCHNEIDER CREEK GREENWAY,GREENWAY,OPEN SPACE,54,MILL ST,54 MILL ST,KITCHENER,ONTARIO,CANADA,43.4357643,-80.4856305,"MILL ST, KITCHENER, ONTARIO, CANADA","Mill St, Kitchener, ON N2M, Canada",,Bing Maps,street
GORDON GREEN,GREEN (PARKETTE),PLAY AREA,11,GORDON AVE,11 GORDON AVE,KITCHENER,ONTARIO,CANADA,43.455729,-80.481176,"GORDON AVE, KITCHENER, ONTARIO, CANADA","Gordon Ave, Kitchener, ON N2H, Canada",,Bing Maps,street
DOON CREEK NATURAL AREA 4,NATURAL AREA,OPEN SPACE/TRAIL,,FOREST CREEK DR,FOREST CREEK DR,KITCHENER,ONTARIO,CANADA,43.3795521,-80.4415356,"FOREST CREEK DR, KITCHENER, ONTARIO, CANADA","Forest Creek Dr, Kitchener, ON N2R, Canada",,Bing Maps,street
BLAIR CREEK - SWP#C,OPEN SPACE,OPEN SPACE/SWM,,BLAIR CREEK DR,BLAIR CREEK DR,KITCHENER,ONTARIO,CANADA,43.3717976,-80.4299264,"BLAIR CREEK DR, KITCHENER, ONTARIO, CANADA","Blair Creek Dr, Kitchener, ON N2P, Canada",,Bing Maps,street
BLUE SPRINGS WOODS NATURAL AREA,NATURAL AREA,OPEN SPACE/WOODLAND,,KEEWATIN AVE,KEEWATIN AVE,KITCHENER,ONTARIO,CANADA,43.4626519,-80.4296449,"KEEWATIN AVE, KITCHENER, ONTARIO, CANADA","Keewatin Ave, Kitchener, ON N2B, Canada",,Bing Maps,street
DENLOW TRAIL,NATURAL AREA,OPEN SPACE/TRAIL,,OTTAWA ST,OTTAWA ST,KITCHENER,ONTARIO,CANADA,43.439001,-80.4746262,"OTTAWA ST, KITCHENER, ONTARIO, CANADA","Ottawa St S, Kitchener, ON N2G, Canada",,Bing Maps,street
ELMSDALE PARK,NEIGHBOURHOOD PARK,PLAY AREA,83,ELMSDALE DR,83 ELMSDALE DR,KITCHENER,ONTARIO,CANADA,43.4221381,-80.4942288,"ELMSDALE DR, KITCHENER, ONTARIO, CANADA","Elmsdale Dr, Kitchener, ON N2E, Canada",,Bing Maps,street
WILLOWLAKE PARK,NEIGHBOURHOOD PARK,OPEN SPACE/TRAIL,1815,OLD MILL RD,1815 OLD MILL RD,KITCHENER,ONTARIO,CANADA,43.3934933,-80.41451,"OLD MILL RD, KITCHENER, ONTARIO, CANADA","Old Mill Rd, Kitchener, ON N2P, Canada",,Bing Maps,street
HOFSTETTER PARK,NEIGHBOURHOOD PARK,MINOR SPORTSFIELD,40,HOFSTETTER AVE,40 HOFSTETTER AVE,KITCHENER,ONTARIO,CANADA,43.4250853,-80.4218009,"HOFSTETTER AVE, KITCHENER, ONTARIO, CANADA","Hofstetter Ave, Kitchener, ON N2A, Canada",,Bing Maps,street
JANINE ST PARK,NEIGHBOURHOOD PARK,PLAY AREA,111,JANINE ST,111 JANINE ST,KITCHENER,ONTARIO,CANADA,43.443954,-80.4098524,"JANINE ST, KITCHENER, ONTARIO, CANADA","Janine St, Kitchener, ON N2A, Canada",,Bing Maps,street
ERINBROOK PARK,NEIGHBOURHOOD PARK,PLAY AREA,,ERINBROOK DR,ERINBROOK DR,KITCHENER,ONTARIO,CANADA,43.411495,-80.491005,"ERINBROOK DR, KITCHENER, ONTARIO, CANADA","Erinbrook Dr, Kitchener, ON N2E, Canada",,Bing Maps,street
PINEDALE PARK,NEIGHBOURHOOD PARK,PLAY AREA,,PINEDALE DR,PINEDALE DR,KITCHENER,ONTARIO,CANADA,43.4195952,-80.5043859,"PINEDALE DR, KITCHENER, ONTARIO, CANADA","Pinedale Dr, Kitchener, ON N2E, Canada",,Bing Maps,street
GREENFIELD PARK,GREEN (PARKETTE),PLAY AREA,525,GREENFIELD AVE,525 GREENFIELD AVE,KITCHENER,ONTARIO,CANADA,43.4253091,-80.4440025,"GREENFIELD AVE, KITCHENER, ONTARIO, CANADA","Greenfield Ave, Kitchener, ON N2C, Canada",,Bing Maps,street
LAURENTIAN PARK,NEIGHBOURHOOD PARK,MINOR SPORTSFIELD,715,LAURENTIAN DR,715 LAURENTIAN DR,KITCHENER,ONTARIO,CANADA,43.4174342,-80.4992195,"LAURENTIAN DR, KITCHENER, ONTARIO, CANADA","Laurentian Dr, Kitchener, ON N2E, Canada",,Bing Maps,street
LYNNVALLEY PARK NATURAL AREA,NATURAL AREA,OPEN SPACE/WOODLAND,26,LYNNVALLEY CRES,26 LYNNVALLEY CRES,KITCHENER,ONTARIO,CANADA,43.4393434,-80.4233487,"LYNNVALLEY CRES, KITCHENER, ONTARIO, CANADA","Lynn Crt, Kitchener, ON N2A, Canada",,Bing Maps,street
MCLENNAN PARK,CITY WIDE PARK,MINOR SPORTSFIELD,901,OTTAWA ST S,901 OTTAWA ST S,KITCHENER,ONTARIO,CANADA,43.4371667,-80.476698,"OTTAWA ST S, KITCHENER, ONTARIO, CANADA","Ottawa St S, Kitchener, ON N2G, Canada",,Bing Maps,street
TRUSSLER RD - SWP,OPEN SPACE,OPEN SPACE/SWM,400,IRA NEEDLES BLVD,400 IRA NEEDLES BLVD,KITCHENER,ONTARIO,CANADA,43.4369643,-80.5602794,"IRA NEEDLES BLVD, KITCHENER, ONTARIO, CANADA","Ira Needles Blvd, Kitchener, ON N2N, Canada",,Bing Maps,street
OLD HURON COURT - SWP,OPEN SPACE,OPEN SPACE/SWM,60,OLD HURON CRT,60 OLD HURON CRT,KITCHENER,ONTARIO,CANADA,43.3971437,-80.4534611,"OLD HURON CRT, KITCHENER, ONTARIO, CANADA","Old Huron Crt, Kitchener, ON N2R, Canada",,Bing Maps,street
STRASBURG - SWP,OPEN SPACE,OPEN SPACE/SWM,1735,STRASBURG RD,1735 STRASBURG RD,KITCHENER,ONTARIO,CANADA,43.4025882,-80.4695072,"STRASBURG RD, KITCHENER, ONTARIO, CANADA","Strasburg Rd, Kitchener, ON N2R, Canada",,Bing Maps,street
WOOLNER - SWP,OPEN SPACE,OPEN SPACE/SWM,129,WOOLNER TRAIL,129 WOOLNER TRAIL,KITCHENER,ONTARIO,CANADA,43.4456635,-80.4029185,"WOOLNER TRAIL, KITCHENER, ONTARIO, CANADA","Woolner Trail, Kitchener, ON N2A, Canada",,Bing Maps,street
SIMS ESTATE - SWP,OPEN SPACE,OPEN SPACE/SWM,251,SIMS ESTATE DR,251 SIMS ESTATE DR,KITCHENER,ONTARIO,CANADA,43.4381858,-80.4145423,"SIMS ESTATE DR, KITCHENER, ONTARIO, CANADA","Sims Estate Dr, Kitchener, ON N2A, Canada",,Bing Maps,street
VICTORIA PARK,CITY WIDE PARK,MINOR SPORTSFIELD,92,DAVID ST,92 DAVID ST,KITCHENER,ONTARIO,CANADA,43.4440545,-80.4974165,"DAVID ST, KITCHENER, ONTARIO, CANADA","David St, Kitchener, ON N2G, Canada",,Bing Maps,street
LAKESIDE PARK NATURAL AREA,NEIGHBOURHOOD PARK,OPEN SPACE,140,LAKESIDE DR,140 LAKESIDE DR,KITCHENER,ONTARIO,CANADA,43.431812,-80.5015595,"LAKESIDE DR, KITCHENER, ONTARIO, CANADA","Lakeside Dr, Kitchener, ON N2M, Canada",,Bing Maps,street
EVERGLADE - SWP,OPEN SPACE,OPEN SPACE/SWM,1720,OTTAWA ST S,1720 OTTAWA ST S,KITCHENER,ONTARIO,CANADA,43.4371667,-80.476698,"OTTAWA ST S, KITCHENER, ONTARIO, CANADA","Ottawa St S, Kitchener, ON N2G, Canada",,Bing Maps,street
GZOWSKI PARK,NEIGHBOURHOOD PARK,MINOR SPORTSFIELD,10,CHOPIN DR,10 CHOPIN DR,KITCHENER,ONTARIO,CANADA,43.4408291,-80.5264608,"CHOPIN DR, KITCHENER, ONTARIO, CANADA","Chopin Dr, Kitchener, ON N2M, Canada",,Bing Maps,street
HIGHLAND COURTS PARK,DISTRICT PARK,MAJOR SPORTSFIELD,120,HIGHLAND RD E,120 HIGHLAND RD E,KITCHENER,ONTARIO,CANADA,43.4399472,-80.4953314,"HIGHLAND RD E, KITCHENER, ONTARIO, CANADA","Highland Rd E, Kitchener, ON N2M, Canada",,Bing Maps,street
GREENGABLE PARK,NEIGHBOURHOOD PARK,MINOR SPORTSFIELD,1220,GREENGABLE WAY,1220 GREENGABLE WAY,KITCHENER,ONTARIO,CANADA,43.4345975,-80.5411854,"GREENGABLE WAY, KITCHENER, ONTARIO, CANADA","Greengable Way, Kitchener, ON N2N, Canada",,Bing Maps,street
WEBER PARK,NEIGHBOURHOOD PARK,MINOR SPORTSFIELD,380,FREDERICK ST,380 FREDERICK ST,KITCHENER,ONTARIO,CANADA,43.4557381,-80.4779707,"FREDERICK ST, KITCHENER, ONTARIO, CANADA","Frederick St, Kitchener, ON N2H, Canada",,Bing Maps,street
MEINZINGER PARK,DISTRICT PARK,MINOR SPORTSFIELD,100,HOMER WATSON BLVD,100 HOMER WATSON BLVD,KITCHENER,ONTARIO,CANADA,43.386724,-80.4119148,"HOMER WATSON BLVD, KITCHENER, ONTARIO, CANADA","Homer Watson Blvd, Kitchener, ON N2P, Canada",,Bing Maps,street
CARLYLE PARK,NEIGHBOURHOOD PARK,MINOR SPORTSFIELD,580,PIONEER DR,580 PIONEER DR,KITCHENER,ONTARIO,CANADA,43.3939,-80.4404702,"PIONEER DR, KITCHENER, ONTARIO, CANADA","Pioneer Dr, Kitchener, ON N2P, Canada",,Bing Maps,street
FALLOWFIELD PARK,NEIGHBOURHOOD PARK,PLAY AREA,185,FALLOWFIELD DR,185 FALLOWFIELD DR,KITCHENER,ONTARIO,CANADA,43.4168086,-80.4620654,"FALLOWFIELD DR, KITCHENER, ONTARIO, CANADA","Fallowfield Dr, Kitchener, ON N2C, Canada",,Bing Maps,street
WILSON PARK NATURAL AREA,DISTRICT PARK,TO INPUT,72,WILSON AVE,72 WILSON AVE,KITCHENER,ONTARIO,CANADA,43.428726,-80.4590555,"WILSON AVE, KITCHENER, ONTARIO, CANADA","Wilson Ave, Kitchener, ON N2C, Canada",,Bing Maps,street
MIKE WAGNER CREEK GREEN (COURTLAND),GREENWAY,OPEN SPACE/FLOODPLAIN,,MADISON AVE S,MADISON AVE S,KITCHENER,ONTARIO,CANADA,43.4430285,-80.4853809,"MADISON AVE S, KITCHENER, ONTARIO, CANADA","Madison Ave S, Kitchener, ON N2G, Canada",,Bing Maps,street
SCHNEIDER CREEK - STIRLING GREENWAY,GREENWAY,OPEN SPACE/TRAIL,,STIRLING AVE S,STIRLING AVE S,KITCHENER,ONTARIO,CANADA,43.4410234,-80.4843618,"STIRLING AVE S, KITCHENER, ONTARIO, CANADA","Stirling Ave S, Kitchener, ON N2G, Canada",,Bing Maps,street
SCHNEIDER CREEK - NYBERG GREENWAY 2,GREENWAY,OPEN SPACE/TRAIL,,NYBERG ST,NYBERG ST,KITCHENER,ONTARIO,CANADA,43.4392919,-80.4758149,"NYBERG ST, KITCHENER, ONTARIO, CANADA","Nyberg St, Kitchener, ON N2G, Canada",,Bing Maps,street
SOUTHRIDGE PARK,NEIGHBOURHOOD PARK,PLAY AREA,1455,QUEENS BLVD,1455 QUEENS BLVD,KITCHENER,ONTARIO,CANADA,43.4385846,-80.5011334,"QUEENS BLVD, KITCHENER, ONTARIO, CANADA","Queen's Blvd, Kitchener, ON N2M, Canada",,Bing Maps,street
FENWICK GREEN,GREEN (PARKETTE),PLAY AREA,140,FENWICK CRT,140 FENWICK CRT,KITCHENER,ONTARIO,CANADA,43.4381721,-80.5292927,"FENWICK CRT, KITCHENER, ONTARIO, CANADA","Fenwick Crt, Kitchener, ON N2M, Canada",,Bing Maps,street
CEDAR CREST PARK,NEIGHBOURHOOD PARK,TO INPUT,92,CEDAR CREST ST,92 CEDAR CREST ST,KITCHENER,ONTARIO,CANADA,43.4130305,-80.5414338,"CEDAR CREST ST, KITCHENER, ONTARIO, CANADA","Cedar Crest St, Kitchener, ON N2N, Canada",,Bing Maps,street
WOODFIELD COURT WOODLAND,NATURAL AREA,OPEN SPACE/WOODLAND,,WOODFIELD ST,WOODFIELD ST,KITCHENER,ONTARIO,CANADA,43.3845366,-80.4379815,"WOODFIELD ST, KITCHENER, ONTARIO, CANADA","Woodfield St, Kitchener, ON N2P, Canada",,Bing Maps,street
SETTLERS GROVE PARK,NEIGHBOURHOOD PARK,PARK,150,PIONEER TOWER RD,150 PIONEER TOWER RD,KITCHENER,ONTARIO,CANADA,43.4061679,-80.4088027,"PIONEER TOWER RD, KITCHENER, ONTARIO, CANADA","Pioneer Tower Rd, Kitchener, ON N2P, Canada",,Bing Maps,street
CENOTAPH GREEN,GREEN (PARKETTE),PASSIVE AREA,29,DUKE ST E,29 DUKE ST E,KITCHENER,ONTARIO,CANADA,43.4495412,-80.4848614,"DUKE ST E, KITCHENER, ONTARIO, CANADA","Duke St E, Kitchener, ON N2H, Canada",,Bing Maps,street
BALZER-MANITOU TRAIL,GREENWAY,OPEN SPACE/TRAIL,,MANITOU DR,MANITOU DR,KITCHENER,ONTARIO,CANADA,43.4184309,-80.4530933,"MANITOU DR, KITCHENER, ONTARIO, CANADA","Manitou Dr, Kitchener, ON N2C, Canada",,Bing Maps,street
SHOEMAKER GREENWAY,GREENWAY,OPEN SPACE/FLOODPLAIN,,KEHL ST,KEHL ST,KITCHENER,ONTARIO,CANADA,43.4288629,-80.4831542,"KEHL ST, KITCHENER, ONTARIO, CANADA","Kehl St, Kitchener, ON N2M, Canada",,Bing Maps,street
WINDALE PARK,NEIGHBOURHOOD PARK,PLAY AREA,76,WINDALE CRES,76 WINDALE CRES,KITCHENER,ONTARIO,CANADA,43.4193029,-80.5094291,"WINDALE CRES, KITCHENER, ONTARIO, CANADA","Windale Crescent, Kitchener, ON N2E, Canada",,Bing Maps,street
RADCLIFFE PARK,NEIGHBOURHOOD PARK,PLAY AREA,70,RADCLIFFE DR,70 RADCLIFFE DR,KITCHENER,ONTARIO,CANADA,43.4136753,-80.4971548,"RADCLIFFE DR, KITCHENER, ONTARIO, CANADA","Radcliffe Dr, Kitchener, ON N2E, Canada",,Bing Maps,street
QUEENSMOUNT PARK,DISTRICT PARK,MAJOR SPORTSFIELD,1260,QUEENS BLVD,1260 QUEENS BLVD,KITCHENER,ONTARIO,CANADA,43.4385846,-80.5011334,"QUEENS BLVD, KITCHENER, ONTARIO, CANADA","Queen's Blvd, Kitchener, ON N2M, Canada",,Bing Maps,street
MICHEL GREEN,GREEN (PARKETTE),PASSIVE AREA,,CHARLES ST E,CHARLES ST E,KITCHENER,ONTARIO,CANADA,43.4427047,-80.476782,"CHARLES ST E, KITCHENER, ONTARIO, CANADA","Charles St E, Kitchener, ON N2G, Canada",,Bing Maps,street
BANKSIDE PARK,NEIGHBOURHOOD PARK,PLAY AREA,292,BANKSIDE DR,292 BANKSIDE DR,KITCHENER,ONTARIO,CANADA,43.4296247,-80.5352015,"BANKSIDE DR, KITCHENER, ONTARIO, CANADA","Bankside Dr, Kitchener, ON N2N, Canada",,Bing Maps,street
WILLOW GREEN,GREEN (PARKETTE),PASSIVE AREA,110,STIRLING AVE S,110 STIRLING AVE S,KITCHENER,ONTARIO,CANADA,43.4410234,-80.4843618,"STIRLING AVE S, KITCHENER, ONTARIO, CANADA","Stirling Ave S, Kitchener, ON N2G, Canada",,Bing Maps,street
SHANTZ PARK,NEIGHBOURHOOD PARK,PLAY AREA,451,MANCHESTER RD,451 MANCHESTER RD,KITCHENER,ONTARIO,CANADA,43.459171,-80.4543665,"MANCHESTER RD, KITCHENER, ONTARIO, CANADA","Manchester Rd, Kitchener, ON N2B, Canada",,Bing Maps,street
TREMAINE PARK,NEIGHBOURHOOD PARK,PASSIVE AREA,100,WILLIAM LEWIS ST,100 WILLIAM LEWIS ST,KITCHENER,ONTARIO,CANADA,43.440297,-80.4104068,"WILLIAM LEWIS ST, KITCHENER, ONTARIO, CANADA","William Lewis St, Kitchener, ON N2A, Canada",,Bing Maps,street
OLD MILL GREEN,NATURAL AREA,OPEN SPACE/FLOODPLAIN,,OLD MILL RD,OLD MILL RD,KITCHENER,ONTARIO,CANADA,43.3934933,-80.41451,"OLD MILL RD, KITCHENER, ONTARIO, CANADA","Old Mill Rd, Kitchener, ON N2P, Canada",,Bing Maps,street
PARKVALE PARK - SWP,OPEN SPACE,OPEN SPACE/SWM,113,PARKVALE DR,113 PARKVALE DR,KITCHENER,ONTARIO,CANADA,43.3890027,-80.4779947,"PARKVALE DR, KITCHENER, ONTARIO, CANADA","Parkvale Dr, Kitchener, ON N2R, Canada",,Bing Maps,street
MOTZ GREEN,GREEN (PARKETTE),OPEN SPACE,,FAIRWAY RD S,FAIRWAY RD S,KITCHENER,ONTARIO,CANADA,43.4215838,-80.4400688,"FAIRWAY RD S, KITCHENER, ONTARIO, CANADA","Fairway Rd S, Kitchener, ON N2C, Canada",,Bing Maps,street
CHICOPEE-VALE TRAIL,NATURAL AREA,OPEN SPACE/TRAIL,281,GRAND RIVER BLVD,281 GRAND RIVER BLVD,KITCHENER,ONTARIO,CANADA,43.4324644,-80.4139437,"GRAND RIVER BLVD, KITCHENER, ONTARIO, CANADA","Grand River Blvd, Kitchener, ON N2A, Canada",,Bing Maps,street
CARISBROOK DRIVE NATURAL AREA,NATURAL AREA,OPEN SPACE/WETLAND,50,CARISBROOK DRIVE,50 CARISBROOK DRIVE,KITCHENER,ONTARIO,CANADA,43.4830548,-80.4812914,"CARISBROOK DRIVE, KITCHENER, ONTARIO, CANADA","Carisbrook Dr, Kitchener, ON N2K, Canada",,Bing Maps,street
TRAYNOR PARK,NEIGHBOURHOOD PARK,PLAY AREA,345,TRAYNOR AVE,345 TRAYNOR AVE,KITCHENER,ONTARIO,CANADA,43.4213635,-80.4516096,"TRAYNOR AVE, KITCHENER, ONTARIO, CANADA","Traynor Ave, Kitchener, ON N2C, Canada",,Bing Maps,street
ARNOLD PARK,NEIGHBOURHOOD PARK,PLAY AREA,70,ARNOLD ST,70 ARNOLD ST,KITCHENER,ONTARIO,CANADA,43.4706887,-80.4762502,"ARNOLD ST, KITCHENER, ONTARIO, CANADA","Arnold St, Kitchener, ON N2H, Canada",,Bing Maps,street
BRUBACHER PARK,GREEN (PARKETTE),PARK,65,BRUBACHER ST,65 BRUBACHER ST,KITCHENER,ONTARIO,CANADA,43.4519305,-80.4769697,"BRUBACHER ST, KITCHENER, ONTARIO, CANADA","Brubacher St, Kitchener, ON N2H, Canada",,Bing Maps,street
CHERRY PARK,NEIGHBOURHOOD PARK,MINOR SPORTSFIELD,84,STRANGE ST,84 STRANGE ST,KITCHENER,ONTARIO,CANADA,43.4468209,-80.5065675,"STRANGE ST, KITCHENER, ONTARIO, CANADA","Strange St, Kitchener, ON N2G, Canada",,Bing Maps,street
ABRAM STAUFFER GREEN,GREEN,PASSIVE AREA,,TILT DR,TILT DR,KITCHENER,ONTARIO,CANADA,43.3876117,-80.4374351,"TILT DR, KITCHENER, ONTARIO, CANADA","Tilt Dr, Kitchener, ON N2P, Canada",,Bing Maps,street
BRIARFIELD PARK NATURAL AREA,NATURAL AREA,OPEN SPACE/WETLAND,,BRIARFIELD ST,BRIARFIELD ST,KITCHENER,ONTARIO,CANADA,43.4409781,-80.4202728,"BRIARFIELD ST, KITCHENER, ONTARIO, CANADA","Briarfield St, Kitchener, ON N2A, Canada",,Bing Maps,street
GRAND RIVER NATURAL AREA - RIVER BIRCH,NATURAL AREA,OPEN SPACE/WOODLAND,900,RIVER BIRCH CRT,900 RIVER BIRCH CRT,KITCHENER,ONTARIO,CANADA,43.412217,-80.4268419,"RIVER BIRCH CRT, KITCHENER, ONTARIO, CANADA","River Birch Crt, Kitchener, ON N2C, Canada",,Bing Maps,street
UPPER CANADA PARK,DISTRICT PARK,TO INPUT,120,PIONEER DR,120 PIONEER DR,KITCHENER,ONTARIO,CANADA,43.3939,-80.4404702,"PIONEER DR, KITCHENER, ONTARIO, CANADA","Pioneer Dr, Kitchener, ON N2P, Canada",,Bing Maps,street
BALZER GREENWAY,GREENWAY,OPEN SPACE/TRAIL,,COUNTRY HILL DR,COUNTRY HILL DR,KITCHENER,ONTARIO,CANADA,43.4146201,-80.4736797,"COUNTRY HILL DR, KITCHENER, ONTARIO, CANADA","Country Hill Dr, Kitchener, ON N2E, Canada",,Bing Maps,street
GRAND VIEW WOODS SOUTH (GRCA),NATURAL AREA,OPEN SPACE/TRAIL,,GRANDHILL DR,GRANDHILL DR,KITCHENER,ONTARIO,CANADA,43.4124489,-80.402899,"GRANDHILL DR, KITCHENER, ONTARIO, CANADA","Grand Hill Dr, Kitchener, ON N2P, Canada",,Bing Maps,street
VETERANS' PARK,NEIGHBOURHOOD PARK,PLAY AREA,75,LORNE CRES,75 LORNE CRES,KITCHENER,ONTARIO,CANADA,43.4363083,-80.4924166,"LORNE CRES, KITCHENER, ONTARIO, CANADA","Lorne Crescent, Kitchener, ON N2M, Canada",,Bing Maps,street
THOMAS SLEE PARK,NEIGHBOURHOOD PARK,PLAY AREA,331,THOMAS SLEE DR,331 THOMAS SLEE DR,KITCHENER,ONTARIO,CANADA,43.374953,-80.4362168,"THOMAS SLEE DR, KITCHENER, ONTARIO, CANADA","Thomas Slee Dr, Kitchener, ON N2P, Canada",,Bing Maps,street
BEAUMONT PARK,NEIGHBOURHOOD PARK,PLAY AREA,345,BEAUMONT CRES,345 BEAUMONT CRES,KITCHENER,ONTARIO,CANADA,43.4390517,-80.4156383,"BEAUMONT CRES, KITCHENER, ONTARIO, CANADA","Beaumont Crescent, Kitchener, ON N2A, Canada",,Bing Maps,street
GRAND VIEW WOODS NORTH (MTO),NATURAL AREA,OPEN SPACE/TRAIL,,GRANDHILL DR,GRANDHILL DR,KITCHENER,ONTARIO,CANADA,43.4124489,-80.402899,"GRANDHILL DR, KITCHENER, ONTARIO, CANADA","Grand Hill Dr, Kitchener, ON N2P, Canada",,Bing Maps,street
RANDERSON GREEN,GREEN (PARKETTE),PASSIVE AREA,,RANDERSON AVE,RANDERSON AVE,KITCHENER,ONTARIO,CANADA,43.444575,-80.462895,"RANDERSON AVE, KITCHENER, ONTARIO, CANADA","Randerson Ave, Kitchener, ON N2H, Canada",,Bing Maps,street
AUTUMN RIDGE TRAIL LINK,GREENWAY,OPEN SPACE/TRAIL,,PINNACLE DR,PINNACLE DR,KITCHENER,ONTARIO,CANADA,43.3895518,-80.4173351,"PINNACLE DR, KITCHENER, ONTARIO, CANADA","Pinnacle Dr, Kitchener, ON N2P, Canada",,Bing Maps,street
ZELLER PARK,NEIGHBOURHOOD PARK,PLAY AREA,245,ZELLER DR,245 ZELLER DR,KITCHENER,ONTARIO,CANADA,43.450822,-80.4064276,"ZELLER DR, KITCHENER, ONTARIO, CANADA","Zeller Dr, Kitchener, ON N2A, Canada",,Bing Maps,street
OVERLEA PARK,NEIGHBOURHOOD PARK,PLAY AREA,25,OVERLEA CRT,25 OVERLEA CRT,KITCHENER,ONTARIO,CANADA,43.4323054,-80.5162463,"OVERLEA CRT, KITCHENER, ONTARIO, CANADA","Overlea Crt, Kitchener, ON N2M, Canada",,Bing Maps,street
SPRINGDALE GREEN NATURAL AREA,NATURAL AREA,OPEN SPACE,,SPRINGDALE DR,SPRINGDALE DR,KITCHENER,ONTARIO,CANADA,43.4774643,-80.4929348,"SPRINGDALE DR, KITCHENER, ONTARIO, CANADA","Springdale Dr, Kitchener, ON N2K, Canada",,Bing Maps,street
HOWE DR - SWP,OPEN SPACE,OPEN SPACE/SWM,178,WINDALE CRES,178 WINDALE CRES,KITCHENER,ONTARIO,CANADA,43.4193029,-80.5094291,"WINDALE CRES, KITCHENER, ONTARIO, CANADA","Windale Crescent, Kitchener, ON N2E, Canada",,Bing Maps,street
MARISA PARK,NEIGHBOURHOOD PARK,OPEN SPACE/TRAIL,63,MARISA ST,63 MARISA ST,KITCHENER,ONTARIO,CANADA,43.4775503,-80.4679444,"MARISA ST, KITCHENER, ONTARIO, CANADA","Marisa St, Kitchener, ON N2K, Canada",,Bing Maps,street
DOON CREEK NATURAL AREA 2,NATURAL AREA,OPEN SPACE/TRAIL,,DOON SOUTH DR,DOON SOUTH DR,KITCHENER,ONTARIO,CANADA,43.3762162,-80.4338862,"DOON SOUTH DR, KITCHENER, ONTARIO, CANADA","Doon South Dr, Kitchener, ON N2P, Canada",,Bing Maps,street
MAJOR PARK,NEIGHBOURHOOD PARK,PLAY AREA,330,BREITHAUPT ST,330 BREITHAUPT ST,KITCHENER,ONTARIO,CANADA,43.4556527,-80.4949792,"BREITHAUPT ST, KITCHENER, ONTARIO, CANADA","Breithaupt St, Kitchener, ON N2H, Canada",,Bing Maps,street
TIMM PARK,NEIGHBOURHOOD PARK,PLAY AREA,360,GAGE AVE,360 GAGE AVE,KITCHENER,ONTARIO,CANADA,43.447291,-80.5144295,"GAGE AVE, KITCHENER, ONTARIO, CANADA","Gage Ave, Kitchener, ON N2M, Canada",,Bing Maps,street
VETERANS' GREEN INTERPRETIVE AREA,GREEN,PASSIVE AREA,,SPADINA RD E,SPADINA RD E,KITCHENER,ONTARIO,CANADA,43.4389333,-80.4976358,"SPADINA RD E, KITCHENER, ONTARIO, CANADA","Spadina Rd E, Kitchener, ON N2M, Canada",,Bing Maps,street
KINGSDALE PARK,NEIGHBOURHOOD PARK,PLAY AREA,124,CEDARWOODS CRES,124 CEDARWOODS CRES,KITCHENER,ONTARIO,CANADA,43.4279742,-80.4408786,"CEDARWOODS CRES, KITCHENER, ONTARIO, CANADA","Cedarwoods Crescent, Kitchener, ON N2C, Canada",,Bing Maps,street
HEARTH GREEN,GREENWAY,OPEN SPACE/TRAIL,,HEARTH CRES,HEARTH CRES,KITCHENER,ONTARIO,CANADA,43.435897,-80.5083966,"HEARTH CRES, KITCHENER, ONTARIO, CANADA","Hearth Crescent, Kitchener, ON N2M, Canada",,Bing Maps,street
DAIMLER DR WALKWAY,GREENWAY,OPEN SPACE/TRAIL,,IDLE RIDGE CRT,IDLE RIDGE CRT,KITCHENER,ONTARIO,CANADA,43.4454386,-80.4229295,"IDLE RIDGE CRT, KITCHENER, ONTARIO, CANADA","Idle Ridge Crt, Kitchener, ON N2A, Canada",,Bing Maps,street
WESTMOUNT DRAIN,GREENWAY,OPEN SPACE/FLOODPLAIN,,VICTORIA ST S,VICTORIA ST S,KITCHENER,ONTARIO,CANADA,43.446906,-80.5041527,"VICTORIA ST S, KITCHENER, ONTARIO, CANADA","Victoria St S, Kitchener, ON N2G, Canada",,Bing Maps,street
DRYDEN GREENWAY,GREENWAY,OPEN SPACE/FLOODPLAIN,,COURTLAND AVE E,COURTLAND AVE E,KITCHENER,ONTARIO,CANADA,43.4432248,-80.4878461,"COURTLAND AVE E, KITCHENER, ONTARIO, CANADA","Courtland Ave E, Kitchener, ON N2G, Canada",,Bing Maps,street
PAIGE PARK NATURAL AREA,NEIGHBOURHOOD PARK,TO INPUT,235,PAIGE PL,235 PAIGE PL,KITCHENER,ONTARIO,CANADA,43.4762793,-80.4685942,"PAIGE PL, KITCHENER, ONTARIO, CANADA","Paige Pl, Kitchener, ON N2K, Canada",,Bing Maps,street
SHADED CREEK DR - SWP,OPEN SPACE,OPEN SPACE/SWM,,SHADED CREEK DR,SHADED CREEK DR,KITCHENER,ONTARIO,CANADA,43.3742431,-80.4411694,"SHADED CREEK DR, KITCHENER, ONTARIO, CANADA","S Creek Dr, Kitchener, ON N2P, Canada",,Bing Maps,street
SANDHILLS PARK,NEIGHBOURHOOD PARK,PLAY AREA,130,CEDAR ST S,130 CEDAR ST S,KITCHENER,ONTARIO,CANADA,43.4422482,-80.4879859,"CEDAR ST S, KITCHENER, ONTARIO, CANADA","Cedar St S, Kitchener, ON N2G, Canada",,Bing Maps,street
ARGYLE PARK,NEIGHBOURHOOD PARK,PLAY AREA,80,ARGYLE ST,80 ARGYLE ST,KITCHENER,ONTARIO,CANADA,43.4540464,-80.5187818,"ARGYLE ST, KITCHENER, ONTARIO, CANADA","Argyle St, Kitchener, ON N2M, Canada",,Bing Maps,street
FORFAR PARK,NEIGHBOURHOOD PARK,PLAY AREA,80,FORFAR AVE,80 FORFAR AVE,KITCHENER,ONTARIO,CANADA,43.464699,-80.4538723,"FORFAR AVE, KITCHENER, ONTARIO, CANADA","Forfar Ave, Kitchener, ON N2B, Canada",,Bing Maps,street
BROOK GREEN,GREEN (PARKETTE),OPEN SPACE/TRAIL,,BROOKSIDE CRES,BROOKSIDE CRES,KITCHENER,ONTARIO,CANADA,43.4220234,-80.5264232,"BROOKSIDE CRES, KITCHENER, ONTARIO, CANADA","Brookside Crescent, Kitchener, ON N2N, Canada",,Bing Maps,street
CHANDLER PARK,NEIGHBOURHOOD PARK,PLAY AREA,222,CHANDLER DR,222 CHANDLER DR,KITCHENER,ONTARIO,CANADA,43.4215284,-80.5006723,"CHANDLER DR, KITCHENER, ONTARIO, CANADA","Chandler Dr, Kitchener, ON N2E, Canada",,Bing Maps,street
FOREST HILL PARK,NEIGHBOURHOOD PARK,MINOR SPORTSFIELD,330,VILLAGE RD,330 VILLAGE RD,KITCHENER,ONTARIO,CANADA,43.4267151,-80.5039343,"VILLAGE RD, KITCHENER, ONTARIO, CANADA","Village Rd, Kitchener, ON N2M, Canada",,Bing Maps,street
FRANCIS GREEN,GREEN (PARKETTE),PASSIVE AREA,399,KING ST W,399 KING ST W,KITCHENER,ONTARIO,CANADA,43.454889,-80.5047745,"KING ST W, KITCHENER, ONTARIO, CANADA","King St W, Kitchener, ON N2G, Canada",,Bing Maps,street
CASEY PARK,NEIGHBOURHOOD PARK,MINOR SPORTSFIELD,50,CASEY DR,50 CASEY DR,KITCHENER,ONTARIO,CANADA,43.4535739,-80.4294716,"CASEY DR, KITCHENER, ONTARIO, CANADA","Casey Dr, Kitchener, ON N2A, Canada",,Bing Maps,street
WHEATFIELD PARK,NEIGHBOURHOOD PARK,OPEN SPACE/TRAIL,103,WHEATFIELD CRES,103 WHEATFIELD CRES,KITCHENER,ONTARIO,CANADA,43.3911246,-80.4463379,"WHEATFIELD CRES, KITCHENER, ONTARIO, CANADA","Wheatfield Crescent, Kitchener, ON N2P, Canada",,Bing Maps,street
STRASBURG CREEK,NATURAL AREA,OPEN SPACE/TRAIL,1891,STRASBURG RD,1891 STRASBURG RD,KITCHENER,ONTARIO,CANADA,43.4025882,-80.4695072,"STRASBURG RD, KITCHENER, ONTARIO, CANADA","Strasburg Rd, Kitchener, ON N2R, Canada",,Bing Maps,street
IRON HORSE TRAIL,GREENWAY,OPEN SPACE/TRAIL,,UNION BLVD TO OTTAWA ST S,UNION BLVD TO OTTAWA ST S,KITCHENER,ONTARIO,CANADA,43.4254979,-80.4838766,"UNION BLVD TO OTTAWA ST S, KITCHENER, ONTARIO, CANADA","Ottawa St S, Kitchener, ON N2E, Canada",,Bing Maps,street
DURHAM GREEN,GREEN,PASSIVE AREA,10,DURHAM ST,10 DURHAM ST,KITCHENER,ONTARIO,CANADA,43.392527,-80.41053,"DURHAM ST, KITCHENER, ONTARIO, CANADA","Durham St, Kitchener, ON N2P, Canada",,Bing Maps,street
EXPRESSWAY TRAIL,GREENWAY,OPEN SPACE/TRAIL,,KRUG ST TO BURBANK RD,KRUG ST TO BURBANK RD,KITCHENER,ONTARIO,CANADA,43.4587791,-80.4574179,"KRUG ST TO BURBANK RD, KITCHENER, ONTARIO, CANADA","Krug St & ON-56, Kitchener, ON N2B, Canada",,Bing Maps,intersection
SCHNEIDER CREEK - NYBERG GREENWAY 1,GREENWAY,OPEN SPACE/TRAIL,,KENT AVE,KENT AVE,KITCHENER,ONTARIO,CANADA,43.4410215,-80.479079,"KENT AVE, KITCHENER, ONTARIO, CANADA","Kent Ave, Kitchener, ON N2G, Canada",,Bing Maps,street
WILLOWRUN PARK,NEIGHBOURHOOD PARK,PLAY AREA,80,WILLOWRUN DR,80 WILLOWRUN DR,KITCHENER,ONTARIO,CANADA,43.4497338,-80.4025468,"WILLOWRUN DR, KITCHENER, ONTARIO, CANADA","Willowrun Dr, Kitchener, ON N2A, Canada",,Bing Maps,street
NORTHFOREST PARK,NEIGHBOURHOOD PARK,PLAY AREA,90,NORTHFOREST TRAIL,90 NORTHFOREST TRAIL,KITCHENER,ONTARIO,CANADA,43.3826895,-80.4265749,"NORTHFOREST TRAIL, KITCHENER, ONTARIO, CANADA","Forest Edge Trail, Kitchener, ON N2P, Canada",,Bing Maps,street
ELM TREE GREEN,GREEN,PASSIVE AREA,870,TRILLIUM DR,870 TRILLIUM DR,KITCHENER,ONTARIO,CANADA,43.4013993,-80.4671115,"TRILLIUM DR, KITCHENER, ONTARIO, CANADA","Trillium Dr, Kitchener, ON N2E, Canada",,Bing Maps,street
HURON TRAIL,GREENWAY,OPEN SPACE/TRAIL,,HURON RD,HURON RD,KITCHENER,ONTARIO,CANADA,43.3919706,-80.4664175,"HURON RD, KITCHENER, ONTARIO, CANADA","Huron Rd, Kitchener, ON N2R, Canada",,Bing Maps,street
ROBERT FERRIE PARKETTE,NEIGHBOURHOOD PARK,PARK,300,ROBERT FERRIE DR,300 ROBERT FERRIE DR,KITCHENER,ONTARIO,CANADA,43.3782108,-80.4498606,"ROBERT FERRIE DR, KITCHENER, ONTARIO, CANADA","Robert Ferrie Dr, Kitchener, ON N2R, Canada",,Bing Maps,street
STANLEY PARK CONSERVATION AREA (GRCA),NATURAL AREA,OPEN SPACE/TRAIL,,RIVER RD E,RIVER RD E,KITCHENER,ONTARIO,CANADA,43.4581692,-80.4527454,"RIVER RD E, KITCHENER, ONTARIO, CANADA","River Rd E, Kitchener, ON N2B, Canada",,Bing Maps,street
KITCHENER MEMORIAL AUDITORIUM COMPLEX SPORTSFIELD,CITY WIDE PARK,MAJOR SPORTSFIELD,400,EAST AVE,400 EAST AVE,KITCHENER,ONTARIO,CANADA,43.4537715,-80.4735214,"EAST AVE, KITCHENER, ONTARIO, CANADA","East Ave, Kitchener, ON N2H, Canada",,Bing Maps,street
MAX BECKER COMMON,NEIGHBOURHOOD PARK,PLAY AREA,300,MAX BECKER DR,300 MAX BECKER DR,KITCHENER,ONTARIO,CANADA,43.4061368,-80.5126042,"MAX BECKER DR, KITCHENER, ONTARIO, CANADA","Max Becker Dr, Kitchener, ON N2E, Canada",,Bing Maps,street
PETER HALLMAN BALL YARD,DISTRICT PARK,MAJOR SPORTSFIELD,220,HAYWARD AVE,220 HAYWARD AVE,KITCHENER,ONTARIO,CANADA,43.4261293,-80.4673128,"HAYWARD AVE, KITCHENER, ONTARIO, CANADA","Hayward Ave, Kitchener, ON N2C, Canada",,Bing Maps,street
SEDGEWOOD PARK,NEIGHBOURHOOD PARK,PLAY AREA,293,SEGDEWOOD ST,293 SEGDEWOOD ST,KITCHENER,ONTARIO,CANADA,43.3722765,-80.4439094,"SEGDEWOOD ST, KITCHENER, ONTARIO, CANADA","Sedgewood St, Kitchener, ON N2P, Canada",,Bing Maps,street
WETLAND WAY PARK,NEIGHBOURHOOD PARK,PLAY AREA,165,BLAIR CREEK DR,165 BLAIR CREEK DR,KITCHENER,ONTARIO,CANADA,43.3717976,-80.4299264,"BLAIR CREEK DR, KITCHENER, ONTARIO, CANADA","Blair Creek Dr, Kitchener, ON N2P, Canada",,Bing Maps,street
SCHNEIDER CREEK PARK NATURAL AREA,NATURAL AREA,OPEN SPACE/FLOODPLAIN,40,GREEN VALLEY DR,40 GREEN VALLEY DR,KITCHENER,ONTARIO,CANADA,43.3985915,-80.4326108,"GREEN VALLEY DR, KITCHENER, ONTARIO, CANADA","Green Valley Dr, Kitchener, ON N2P, Canada",,Bing Maps,street
HERITAGE PARK,NEIGHBOURHOOD PARK,PLAY AREA,30,HALIFAX DR,30 HALIFAX DR,KITCHENER,ONTARIO,CANADA,43.462826,-80.4459605,"HALIFAX DR, KITCHENER, ONTARIO, CANADA","Halifax Dr, Kitchener, ON N2B, Canada",,Bing Maps,street
LUTHER GREEN,GREEN (PARKETTE),PASSIVE AREA,,WEBER ST E,WEBER ST E,KITCHENER,ONTARIO,CANADA,43.4436524,-80.4667194,"WEBER ST E, KITCHENER, ONTARIO, CANADA","Weber St E, Kitchener, ON N2H, Canada",,Bing Maps,street
HURON NATURAL AREA,NATURAL AREA,OPEN SPACE/WETLAND,801,TRILLIUM DR,801 TRILLIUM DR,KITCHENER,ONTARIO,CANADA,43.4013993,-80.4671115,"TRILLIUM DR, KITCHENER, ONTARIO, CANADA","Trillium Dr, Kitchener, ON N2E, Canada",,Bing Maps,street
SEABROOK PARK,NEIGHBOURHOOD PARK,PLAY AREA,190,SEABROOK DR,190 SEABROOK DR,KITCHENER,ONTARIO,CANADA,43.3859006,-80.4969817,"SEABROOK DR, KITCHENER, ONTARIO, CANADA","Seabrook Dr, Kitchener, ON N2R, Canada",,Bing Maps,street
HEARTHWOOD NATURAL AREA,NATURAL AREA,OPEN SPACE/WETLAND,372,HEARTHWOOD DR,372 HEARTHWOOD DR,KITCHENER,ONTARIO,CANADA,43.3816282,-80.4543802,"HEARTHWOOD DR, KITCHENER, ONTARIO, CANADA","Hearthwood Dr, Kitchener, ON N2R, Canada",,Bing Maps,street
ADMIRAL PARK,NEIGHBOURHOOD PARK,MINOR SPORTSFIELD,93,ROXBOROUGH AVE,93 ROXBOROUGH AVE,KITCHENER,ONTARIO,CANADA,43.4386318,-80.5081949,"ROXBOROUGH AVE, KITCHENER, ONTARIO, CANADA","Roxborough Ave, Kitchener, ON N2M, Canada",,Bing Maps,street
PIONEER PARK,NEIGHBOURHOOD PARK,OPEN SPACE/TRAIL,40,GREEN VALLEY DR,40 GREEN VALLEY DR,KITCHENER,ONTARIO,CANADA,43.3985915,-80.4326108,"GREEN VALLEY DR, KITCHENER, ONTARIO, CANADA","Green Valley Dr, Kitchener, ON N2P, Canada",,Bing Maps,street
KAUFMAN PARK,DISTRICT PARK,MAJOR SPORTSFIELD,104,STIRLING AVE S,104 STIRLING AVE S,KITCHENER,ONTARIO,CANADA,43.4410234,-80.4843618,"STIRLING AVE S, KITCHENER, ONTARIO, CANADA","Stirling Ave S, Kitchener, ON N2G, Canada",,Bing Maps,street
SPRINGMOUNT PARK NATURAL AREA,NEIGHBOURHOOD PARK,TO INPUT,27,SPRINGMOUNT DR,27 SPRINGMOUNT DR,KITCHENER,ONTARIO,CANADA,43.4478566,-80.4245268,"SPRINGMOUNT DR, KITCHENER, ONTARIO, CANADA","Springmount Dr, Kitchener, ON N2A, Canada",,Bing Maps,street
GEORGE LIPPERT PARK,NEIGHBOURHOOD PARK,PLAY AREA,200,WEBER ST W,200 WEBER ST W,KITCHENER,ONTARIO,CANADA,43.4552277,-80.4941766,"WEBER ST W, KITCHENER, ONTARIO, CANADA","Weber St W, Kitchener, ON N2H, Canada",,Bing Maps,street
FOREST CREEK DR PARK,NEIGHBOURHOOD PARK,PLAY AREA,40,FOREST CREEK DR,40 FOREST CREEK DR,KITCHENER,ONTARIO,CANADA,43.3795521,-80.4415356,"FOREST CREEK DR, KITCHENER, ONTARIO, CANADA","Forest Creek Dr, Kitchener, ON N2R, Canada",,Bing Maps,street
OSCAR LAUBER PARK,NEIGHBOURHOOD PARK,PLAY AREA,314,LOUISA ST,314 LOUISA ST,KITCHENER,ONTARIO,CANADA,43.4577985,-80.4956926,"LOUISA ST, KITCHENER, ONTARIO, CANADA","Louisa St, Kitchener, ON N2H, Canada",,Bing Maps,street
DOON MILLS PARK,NEIGHBOURHOOD PARK,PLAY AREA,4,DOON MILLS DR,4 DOON MILLS DR,KITCHENER,ONTARIO,CANADA,43.3852262,-80.4306431,"DOON MILLS DR, KITCHENER, ONTARIO, CANADA","Doon Mills Dr, Kitchener, ON N2P, Canada",,Bing Maps,street
PAIGE ST - SWP,OPEN SPACE,OPEN SPACE/SWM,76,PAIGE ST,76 PAIGE ST,KITCHENER,ONTARIO,CANADA,43.4766869,-80.4673035,"PAIGE ST, KITCHENER, ONTARIO, CANADA","Paige St, Kitchener, ON N2K, Canada",,Bing Maps,street
PIONEER MEMORIAL TOWER PARK,GREEN (PARKETTE),HISTORIC SITE,300,LOOKOUT LANE,300 LOOKOUT LANE,KITCHENER,ONTARIO,CANADA,43.4046538,-80.4172672,"LOOKOUT LANE, KITCHENER, ONTARIO, CANADA","Lookout Lane, Kitchener, ON N2P, Canada",,Bing Maps,street
BLAIR CREEK NATURAL AREA,NATURAL AREA,OPEN SPACE/WETLAND,,BLAIR CREEK DR AND DODGE DR,BLAIR CREEK DR AND DODGE DR,KITCHENER,ONTARIO,CANADA,43.3731132,-80.4268277,"BLAIR CREEK DR AND DODGE DR, KITCHENER, ONTARIO, CANADA","Blair Creek Dr, Kitchener, ON N2P, Canada",,Bing Maps,street
KUNTZ PARK,NEIGHBOURHOOD PARK,TO INPUT,290,LOOKOUT LANE,290 LOOKOUT LANE,KITCHENER,ONTARIO,CANADA,43.4046538,-80.4172672,"LOOKOUT LANE, KITCHENER, ONTARIO, CANADA","Lookout Lane, Kitchener, ON N2P, Canada",,Bing Maps,street
OATEN PARK,NEIGHBOURHOOD PARK,PLAY AREA,155,RUTHERFORD DR,155 RUTHERFORD DR,KITCHENER,ONTARIO,CANADA,43.4342789,-80.4335458,"RUTHERFORD DR, KITCHENER, ONTARIO, CANADA","Rutherford Dr, Kitchener, ON N2A, Canada",,Bing Maps,street
BELMONT PARK,NEIGHBOURHOOD PARK,PLAY AREA,285,BELMONT AVE W,285 BELMONT AVE W,KITCHENER,ONTARIO,CANADA,43.4404954,-80.508644,"BELMONT AVE W, KITCHENER, ONTARIO, CANADA","Belmont Ave W, Kitchener, ON N2M, Canada",,Bing Maps,street
PROSPECT PARK,NEIGHBOURHOOD PARK,PLAY AREA,131,WILFRED AVE,131 WILFRED AVE,KITCHENER,ONTARIO,CANADA,43.4391344,-80.4518581,"WILFRED AVE, KITCHENER, ONTARIO, CANADA","Wilfred Ave, Kitchener, ON N2A, Canada",,Bing Maps,street
SCHAEFER PARK,NEIGHBOURHOOD PARK,PLAY AREA,75,BLOOMINGDALE RD,75 BLOOMINGDALE RD,KITCHENER,ONTARIO,CANADA,43.4804251,-80.4792701,"BLOOMINGDALE RD, KITCHENER, ONTARIO, CANADA","Bloomingdale Rd, Kitchener, ON N2K, Canada",,Bing Maps,street
DRIFTWOOD PARK,NEIGHBOURHOOD PARK,MINOR SPORTSFIELD,,DRIFTWOOD DR,DRIFTWOOD DR,KITCHENER,ONTARIO,CANADA,43.4178885,-80.5401276,"DRIFTWOOD DR, KITCHENER, ONTARIO, CANADA","Driftwood Dr, Kitchener, ON N2N, Canada",,Bing Maps,street
ORCHARD MILL GREEN,GREEN (PARKETTE),PASSIVE AREA,,DOON VALLEY DR,DOON VALLEY DR,KITCHENER,ONTARIO,CANADA,43.392686,-80.402306,"DOON VALLEY DR, KITCHENER, ONTARIO, CANADA","Doon Valley Dr, Kitchener, ON N2P, Canada",,Bing Maps,street
GENERALS GREEN,GREEN (PARKETTE),PASSIVE AREA,624,LANCASTER ST W,624 LANCASTER ST W,KITCHENER,ONTARIO,CANADA,43.460757,-80.483274,"LANCASTER ST W, KITCHENER, ONTARIO, CANADA","Lancaster St W, Kitchener, ON N2H, Canada",,Bing Maps,street
IDLEWOOD CREEK NATURAL AREA,NATURAL AREA,OPEN SPACE/WETLAND,895,FAIRWAY RD N,895 FAIRWAY RD N,KITCHENER,ONTARIO,CANADA,43.4287407,-80.4319771,"FAIRWAY RD N, KITCHENER, ONTARIO, CANADA","Fairway Rd N, Kitchener, ON N2A, Canada",,Bing Maps,street
FALCONRIDGE DRIVE NATURAL AREA - SWP,OPEN SPACE,OPEN SPACE/SWM,91,FALCONRIDGE DR,91 FALCONRIDGE DR,KITCHENER,ONTARIO,CANADA,43.4962255,-80.4733095,"FALCONRIDGE DR, KITCHENER, ONTARIO, CANADA","Falconridge Dr, Kitchener, ON N2K, Canada",,Bing Maps,street
WESTHEIGHTS PARK NATURAL AREA,NEIGHBOURHOOD PARK,TO INPUT,401,WESTHEIGHTS DR,401 WESTHEIGHTS DR,KITCHENER,ONTARIO,CANADA,43.4282645,-80.5306159,"WESTHEIGHTS DR, KITCHENER, ONTARIO, CANADA","Westheights Dr, Kitchener, ON N2N, Canada",,Bing Maps,street
SCHNEIDER CREEK FLOODPLAIN,GREENWAY,OPEN SPACE/FLOODPLAIN,54,MILL ST,54 MILL ST,KITCHENER,ONTARIO,CANADA,43.4357643,-80.4856305,"MILL ST, KITCHENER, ONTARIO, CANADA","Mill St, Kitchener, ON N2M, Canada",,Bing Maps,street
BANFFSHIRE PARK,NEIGHBOURHOOD PARK,PLAY AREA,85,BANFFSHIRE ST,85 BANFFSHIRE ST,KITCHENER,ONTARIO,CANADA,43.3872599,-80.4716274,"BANFFSHIRE ST, KITCHENER, ONTARIO, CANADA","Banffshire St, Kitchener, ON N2R, Canada",,Bing Maps,street
WESTMEADOW PARK,NEIGHBOURHOOD PARK,OPEN SPACE/TRAIL,281,WESTMEADOW DR,281 WESTMEADOW DR,KITCHENER,ONTARIO,CANADA,43.4293075,-80.5471645,"WESTMEADOW DR, KITCHENER, ONTARIO, CANADA","Westmeadow Dr, Kitchener, ON N2N, Canada",,Bing Maps,street
HENRY STURM GREENWAY - SWP,OPEN SPACE,OPEN SPACE/SWM,328,WEST AVE,328 WEST AVE,KITCHENER,ONTARIO,CANADA,43.4424338,-80.5033644,"WEST AVE, KITCHENER, ONTARIO, CANADA","West Ave, Kitchener, ON N2M, Canada",,Bing Maps,street
LIPS PARK,NEIGHBOURHOOD PARK,PLAY AREA,187,LANCASTER ST W,187 LANCASTER ST W,KITCHENER,ONTARIO,CANADA,43.460757,-80.483274,"LANCASTER ST W, KITCHENER, ONTARIO, CANADA","Lancaster St W, Kitchener, ON N2H, Canada",,Bing Maps,street
GLENDALE PARK,NEIGHBOURHOOD PARK,PLAY AREA,130,GLEN RD,130 GLEN RD,KITCHENER,ONTARIO,CANADA,43.4363642,-80.4991421,"GLEN RD, KITCHENER, ONTARIO, CANADA","Glen Rd, Kitchener, ON N2M, Canada",,Bing Maps,street
MORGAN PARK,NEIGHBOURHOOD PARK,MINOR SPORTSFIELD,325,MORGAN AVE,325 MORGAN AVE,KITCHENER,ONTARIO,CANADA,43.4284509,-80.4284983,"MORGAN AVE, KITCHENER, ONTARIO, CANADA","Morgan Ave, Kitchener, ON N2A, Canada",,Bing Maps,street
DEER RIDGE PARK NATURAL AREA,NATURAL AREA,TO INPUT,471,DEER RIDGE DR,471 DEER RIDGE DR,KITCHENER,ONTARIO,CANADA,43.4028885,-80.4170705,"DEER RIDGE DR, KITCHENER, ONTARIO, CANADA","Deer Ridge Dr, Kitchener, ON N2P, Canada",,Bing Maps,street
ROCKWAY GARDENS,CITY WIDE PARK,PASSIVE AREA,7,FLORAL CRES,7 FLORAL CRES,KITCHENER,ONTARIO,CANADA,43.4377776,-80.4624816,"FLORAL CRES, KITCHENER, ONTARIO, CANADA","Floral Crescent, Kitchener, ON N2G, Canada",,Bing Maps,street
PROSPERITY TRAIL,GREENWAY,OPEN SPACE/TRAIL,,PROSPERITY DR,PROSPERITY DR,KITCHENER,ONTARIO,CANADA,43.4101834,-80.5275689,"PROSPERITY DR, KITCHENER, ONTARIO, CANADA","Prosperity Dr, Kitchener, ON N2E, Canada",,Bing Maps,street
HYDRO CORRIDOR TRAIL,OPEN SPACE,OPEN SPACE/TRAIL,,PARKVALE DR,PARKVALE DR,KITCHENER,ONTARIO,CANADA,43.3890027,-80.4779947,"PARKVALE DR, KITCHENER, ONTARIO, CANADA","Parkvale Dr, Kitchener, ON N2R, Canada",,Bing Maps,street
BUDD PARK,DISTRICT PARK,MAJOR SPORTSFIELD,1111,HOMER WATSON BLVD,1111 HOMER WATSON BLVD,KITCHENER,ONTARIO,CANADA,43.386724,-80.4119148,"HOMER WATSON BLVD, KITCHENER, ONTARIO, CANADA","Homer Watson Blvd, Kitchener, ON N2P, Canada",,Bing Maps,street
MORRISON PARK,NEIGHBOURHOOD PARK,MINOR SPORTSFIELD,245,MORRISON RD,245 MORRISON RD,KITCHENER,ONTARIO,CANADA,43.4356588,-80.4127435,"MORRISON RD, KITCHENER, ONTARIO, CANADA","Morrison Rd, Kitchener, ON N2A, Canada",,Bing Maps,street
CIVIC CENTRE PARK,NEIGHBOURHOOD PARK,PLAY AREA,101,QUEEN ST N,101 QUEEN ST N,KITCHENER,ONTARIO,CANADA,43.4565815,-80.4836827,"QUEEN ST N, KITCHENER, ONTARIO, CANADA","Queen St N, Kitchener, ON N2H, Canada",,Bing Maps,street
SPEAKERS CORNER,GREEN (URBAN PLAZA),PASSIVE AREA,69,KING ST E,69 KING ST E,KITCHENER,ONTARIO,CANADA,43.438758,-80.4636758,"KING ST E, KITCHENER, ONTARIO, CANADA","King St E, Kitchener, ON N2G, Canada",,Bing Maps,street
STIRLING GREEN,GREEN (PARKETTE),PASSIVE AREA,,STIRLING AVE S,STIRLING AVE S,KITCHENER,ONTARIO,CANADA,43.4410234,-80.4843618,"STIRLING AVE S, KITCHENER, ONTARIO, CANADA","Stirling Ave S, Kitchener, ON N2G, Canada",,Bing Maps,street
UNION LANE GREEN,GREEN (PARKETTE),OPEN SPACE,220,UNION LANE,220 UNION LANE,KITCHENER,ONTARIO,CANADA,43.4718503,-80.4855486,"UNION LANE, KITCHENER, ONTARIO, CANADA","Union Lane, Kitchener, ON N2H, Canada",,Bing Maps,street
MONTGOMERY PARK,NEIGHBOURHOOD PARK,PLAY AREA,135,MONTGOMERY RD,135 MONTGOMERY RD,KITCHENER,ONTARIO,CANADA,43.4378737,-80.4585557,"MONTGOMERY RD, KITCHENER, ONTARIO, CANADA","Montgomery Rd, Kitchener, ON N2H, Canada",,Bing Maps,street
HIGHBROOK - SWP,OPEN SPACE,OPEN SPACE/SWM,280,HIGHBROOK CRES,280 HIGHBROOK CRES,KITCHENER,ONTARIO,CANADA,43.4099782,-80.5028836,"HIGHBROOK CRES, KITCHENER, ONTARIO, CANADA","Highbrook Crescent, Kitchener, ON N2E, Canada",,Bing Maps,street
UNIROYAL-GOODRICH PARK,NEIGHBOURHOOD PARK,PLAY AREA,250,GUELPH ST,250 GUELPH ST,KITCHENER,ONTARIO,CANADA,43.4609797,-80.5005017,"GUELPH ST, KITCHENER, ONTARIO, CANADA","Guelph St, Kitchener, ON N2H, Canada",,Bing Maps,street
KOLB PARK NATURAL AREA,NATURAL AREA,OPEN SPACE/TRAIL,235,CENTENNIAL CRT,235 CENTENNIAL CRT,KITCHENER,ONTARIO,CANADA,43.4756283,-80.4280588,"CENTENNIAL CRT, KITCHENER, ONTARIO, CANADA","Centennial Crt, Kitchener, ON N2B, Canada",,Bing Maps,street
GRAND RIVER NATURAL AREA - LANCASTER BUSINESS PARK,NATURAL AREA,OPEN SPACE/TRAIL,,RIVERBEND DR,RIVERBEND DR,KITCHENER,ONTARIO,CANADA,43.4668388,-80.467437,"RIVERBEND DR, KITCHENER, ONTARIO, CANADA","Riverbend Dr, Kitchener, ON N2B, Canada",,Bing Maps,street
SCHNEIDER PARK NATURAL AREA,NATURAL AREA,OPEN SPACE/FLOODPLAIN,3571,KING ST E,3571 KING ST E,KITCHENER,ONTARIO,CANADA,43.438758,-80.4636758,"KING ST E, KITCHENER, ONTARIO, CANADA","King St E, Kitchener, ON N2G, Canada",,Bing Maps,street
SANDROCK CREEK GREENWAY,GREENWAY,OPEN SPACE/FLOODPLAIN,,FISCHER HALLMAN RD TO ROYAL ORCHARD DR,FISCHER HALLMAN RD TO ROYAL ORCHARD DR,KITCHENER,ONTARIO,CANADA,43.4375851,-80.5299872,"FISCHER HALLMAN RD TO ROYAL ORCHARD DR, KITCHENER, ONTARIO, CANADA","Fischer Hallman Rd, Kitchener, ON N2M, Canada",,Bing Maps,street
GREENBROOK PUMPING STATION,OPEN SPACE,PUMPING STATION,20,GREENBROOK DRIVE,20 GREENBROOK DRIVE,KITCHENER,ONTARIO,CANADA,43.4252943,-80.5118468,"GREENBROOK DRIVE, KITCHENER, ONTARIO, CANADA","Greenbrook Dr, Kitchener, ON N2M, Canada",,Bing Maps,street
ROLLING MEADOWS PARK,NEIGHBOURHOOD PARK,MINOR SPORTSFIELD,200,ROLLING MEADOWS DR,200 ROLLING MEADOWS DR,KITCHENER,ONTARIO,CANADA,43.4225129,-80.5452983,"ROLLING MEADOWS DR, KITCHENER, ONTARIO, CANADA","Rolling Meadows Dr, Kitchener, ON N2N, Canada",,Bing Maps,street
GROVE DRIVE GREENWAY,GREENWAY,OPEN SPACE/TRAIL,,GROVE DR,GROVE DR,KITCHENER,ONTARIO,CANADA,43.4151146,-80.5103653,"GROVE DR, KITCHENER, ONTARIO, CANADA","Grove Dr, Kitchener, ON N2E, Canada",,Bing Maps,street
GRAND RIVER NATURAL AREA - OLD MILL,NATURAL AREA,OPEN SPACE/WETLAND,1810,OLD MILL RD,1810 OLD MILL RD,KITCHENER,ONTARIO,CANADA,43.3934933,-80.41451,"OLD MILL RD, KITCHENER, ONTARIO, CANADA","Old Mill Rd, Kitchener, ON N2P, Canada",,Bing Maps,street
BLOCK LINE RD - SWP,OPEN SPACE,OPEN SPACE/SWM,,BLOCK LINE RD,BLOCK LINE RD,KITCHENER,ONTARIO,CANADA,43.414067,-80.4828398,"BLOCK LINE RD, KITCHENER, ONTARIO, CANADA","Block Line Rd, Kitchener, ON N2E, Canada",,Bing Maps,street
GRAND RIVER NATURAL AREA - OTTERBEIN,NATURAL AREA,OPEN SPACE/TRAIL,650,OTTERBEIN RD,650 OTTERBEIN RD,KITCHENER,ONTARIO,CANADA,43.4661391,-80.4304205,"OTTERBEIN RD, KITCHENER, ONTARIO, CANADA","Otterbein Rd, Kitchener, ON N2B, Canada",,Bing Maps,street
TRAILVIEW PARK NATURAL AREA,NEIGHBOURHOOD PARK,TO INPUT,21,TRAILVIEW DRIVE,21 TRAILVIEW DRIVE,KITCHENER,ONTARIO,CANADA,43.4266808,-80.5345236,"TRAILVIEW DRIVE, KITCHENER, ONTARIO, CANADA","Trailview Dr, Kitchener, ON N2N, Canada",,Bing Maps,street
HELENA FEASBY ST - SWP,OPEN SPACE,OPEN SPACE/SWM,1440,BLEAMS RD,1440 BLEAMS RD,KITCHENER,ONTARIO,CANADA,43.4098971,-80.4619459,"BLEAMS RD, KITCHENER, ONTARIO, CANADA","Bleams Rd, Kitchener, ON N2E, Canada",,Bing Maps,street
VETERANS' GREEN,GREEN,PASSIVE AREA,,SPADINA RD E,SPADINA RD E,KITCHENER,ONTARIO,CANADA,43.4389333,-80.4976358,"SPADINA RD E, KITCHENER, ONTARIO, CANADA","Spadina Rd E, Kitchener, ON N2M, Canada",,Bing Maps,street
SOPHIA PARK,NEIGHBOURHOOD PARK,PLAY AREA,97,SOPHIA CRES,97 SOPHIA CRES,KITCHENER,ONTARIO,CANADA,43.3863965,-80.4848585,"SOPHIA CRES, KITCHENER, ONTARIO, CANADA","Sophia Crescent, Kitchener, ON N2R, Canada",,Bing Maps,street
GRAND RIVER NATURAL AREA - RIVER RIDGE,NATURAL AREA,OPEN SPACE/TRAIL,1270,OLD ZELLER DR,1270 OLD ZELLER DR,KITCHENER,ONTARIO,CANADA,43.4523576,-80.4074068,"OLD ZELLER DR, KITCHENER, ONTARIO, CANADA","Old Zeller Dr, Kitchener, ON N2A, Canada",,Bing Maps,street
HYDRO CORRIDOR TRAIL,OPEN SPACE,OPEN SPACE/TRAIL,,RIVER RD E,RIVER RD E,KITCHENER,ONTARIO,CANADA,43.4581692,-80.4527454,"RIVER RD E, KITCHENER, ONTARIO, CANADA","River Rd E, Kitchener, ON N2B, Canada",,Bing Maps,street
GRAND RIVER CORRIDOR (GRCA),NATURAL AREA,OPEN SPACE/TRAIL,,PIONEER TOWER RD,PIONEER TOWER RD,KITCHENER,ONTARIO,CANADA,43.4061679,-80.4088027,"PIONEER TOWER RD, KITCHENER, ONTARIO, CANADA","Pioneer Tower Rd, Kitchener, ON N2P, Canada",,Bing Maps,street
SYLVIA PARK,NEIGHBOURHOOD PARK,PLAY AREA,25,SYLVIA ST,25 SYLVIA ST,KITCHENER,ONTARIO,CANADA,43.4816292,-80.4653314,"SYLVIA ST, KITCHENER, ONTARIO, CANADA","Sylvia St, Kitchener, ON N2K, Canada",,Bing Maps,street
HENRY STURM GREENWAY,GREENWAY,OPEN SPACE/TRAIL,,WEST AVE,WEST AVE,KITCHENER,ONTARIO,CANADA,43.4424338,-80.5033644,"WEST AVE, KITCHENER, ONTARIO, CANADA","West Ave, Kitchener, ON N2M, Canada",,Bing Maps,street
MEADOWLANE PARK,NEIGHBOURHOOD PARK,PARK,138,GLEN PARK CRES,138 GLEN PARK CRES,KITCHENER,ONTARIO,CANADA,43.4163837,-80.5258263,"GLEN PARK CRES, KITCHENER, ONTARIO, CANADA","Glen Park Crescent, Kitchener, ON N2N, Canada",,Bing Maps,street
TECUMSEH PARK,NEIGHBOURHOOD PARK,PLAY AREA,140,INDIAN RD,140 INDIAN RD,KITCHENER,ONTARIO,CANADA,43.4580013,-80.4377577,"INDIAN RD, KITCHENER, ONTARIO, CANADA","Indian Rd, Kitchener, ON N2B, Canada",,Bing Maps,street
MADISON GREEN,GREEN (PARKETTE),PASSIVE AREA,65,MADISON AVE N,65 MADISON AVE N,KITCHENER,ONTARIO,CANADA,43.446728,-80.4820984,"MADISON AVE N, KITCHENER, ONTARIO, CANADA","Madison Ave N, Kitchener, ON N2H, Canada",,Bing Maps,street
WOODSIDE PARK,NEIGHBOURHOOD PARK,MAJOR SPORTSFIELD,45,WOODSIDE AVE,45 WOODSIDE AVE,KITCHENER,ONTARIO,CANADA,43.4413952,-80.4948056,"WOODSIDE AVE, KITCHENER, ONTARIO, CANADA","Woodside Ave, Kitchener, ON N2M, Canada",,Bing Maps,street
FOREST HEIGHTS COMMUNITY CENTRE AND FIRE HALL,NEIGHBOURHOOD PARK,MINOR SPORTSFIELD,1700,QUEENS BLVD,1700 QUEENS BLVD,KITCHENER,ONTARIO,CANADA,43.4385846,-80.5011334,"QUEENS BLVD, KITCHENER, ONTARIO, CANADA","Queen's Blvd, Kitchener, ON N2M, Canada",,Bing Maps,street
HOMER WATSON PARK NATURAL AREA,NATURAL AREA,OPEN SPACE/WOODLAND,40,GREEN VALLEY DR,40 GREEN VALLEY DR,KITCHENER,ONTARIO,CANADA,43.3985915,-80.4326108,"GREEN VALLEY DR, KITCHENER, ONTARIO, CANADA","Green Valley Dr, Kitchener, ON N2P, Canada",,Bing Maps,street
MARKET GREEN,GREEN (PARKETTE),PASSIVE AREA,31,SCOTT ST,31 SCOTT ST,KITCHENER,ONTARIO,CANADA,43.4511588,-80.4839263,"SCOTT ST, KITCHENER, ONTARIO, CANADA","Scott St, Kitchener, ON N2H, Canada",,Bing Maps,street
GRCA LANDS (GRCA),NATURAL AREA,OPEN SPACE/FLOODPLAIN,,PIONEER TOWER RD,PIONEER TOWER RD,KITCHENER,ONTARIO,CANADA,43.4061679,-80.4088027,"PIONEER TOWER RD, KITCHENER, ONTARIO, CANADA","Pioneer Tower Rd, Kitchener, ON N2P, Canada",,Bing Maps,street
LANCASTER PARK,NEIGHBOURHOOD PARK,PLAY AREA,559,LANCASTER ST W,559 LANCASTER ST W,KITCHENER,ONTARIO,CANADA,43.460757,-80.483274,"LANCASTER ST W, KITCHENER, ONTARIO, CANADA","Lancaster St W, Kitchener, ON N2H, Canada",,Bing Maps,street
VANIER PARK,NEIGHBOURHOOD PARK,PLAY AREA,329,VANIER DR,329 VANIER DR,KITCHENER,ONTARIO,CANADA,43.4206043,-80.4553018,"VANIER DR, KITCHENER, ONTARIO, CANADA","Vanier Dr, Kitchener, ON N2C, Canada",,Bing Maps,street
STABLER GREEN,GREEN (PARKETTE),PASSIVE AREA,115,WEBER ST E,115 WEBER ST E,KITCHENER,ONTARIO,CANADA,43.4436524,-80.4667194,"WEBER ST E, KITCHENER, ONTARIO, CANADA","Weber St E, Kitchener, ON N2H, Canada",,Bing Maps,street
MILLWOOD PARK,NEIGHBOURHOOD PARK,TO INPUT,130,MILLWOOD CRES,130 MILLWOOD CRES,KITCHENER,ONTARIO,CANADA,43.3978971,-80.4493905,"MILLWOOD CRES, KITCHENER, ONTARIO, CANADA","Millwood Crescent, Kitchener, ON N2P, Canada",,Bing Maps,street
GRAND RIVER FLOODPLAIN (KING STREET EAST)(GRCA),OPEN SPACE,OPEN SPACE/TRAIL,,KING ST E,KING ST E,KITCHENER,ONTARIO,CANADA,43.438758,-80.4636758,"KING ST E, KITCHENER, ONTARIO, CANADA","King St E, Kitchener, ON N2G, Canada",,Bing Maps,street
VOISIN PARK,NEIGHBOURHOOD PARK,MINOR SPORTSFIELD,225,ACTIVA AVE,225 ACTIVA AVE,KITCHENER,ONTARIO,CANADA,43.407123,-80.5118318,"ACTIVA AVE, KITCHENER, ONTARIO, CANADA","Activa Ave, Kitchener, ON N2E, Canada",,Bing Maps,street
FRANKLIN PARK,NEIGHBOURHOOD PARK,MINOR SPORTSFIELD,335,FRANKLIN ST N,335 FRANKLIN ST N,KITCHENER,ONTARIO,CANADA,43.4383965,-80.4457932,"FRANKLIN ST N, KITCHENER, ONTARIO, CANADA","Franklin St N, Kitchener, ON N2A, Canada",,Bing Maps,street
LANG GREEN,GREEN (PARKETTE),PASSIVE AREA,69,VICTORIA ST S,69 VICTORIA ST S,KITCHENER,ONTARIO,CANADA,43.446906,-80.5041527,"VICTORIA ST S, KITCHENER, ONTARIO, CANADA","Victoria St S, Kitchener, ON N2G, Canada",,Bing Maps,street
STRASBURG CREEK NATURAL AREA,NATURAL AREA,OPEN SPACE/WETLAND,,STRASBURG RD,STRASBURG RD,KITCHENER,ONTARIO,CANADA,43.4025882,-80.4695072,"STRASBURG RD, KITCHENER, ONTARIO, CANADA","Strasburg Rd, Kitchener, ON N2R, Canada",,Bing Maps,street
KIWANIS PARK,CITY WIDE PARK,PLAY AREA,1000,KIWANIS PARK DR,1000 KIWANIS PARK DR,KITCHENER,ONTARIO,CANADA,43.501175,-80.4769442,"KIWANIS PARK DR, KITCHENER, ONTARIO, CANADA","Kiwanis Park Dr, Kitchener, ON N2K, Canada",,Bing Maps,street
SCHARLACH GREEN,GREEN (PARKETTE),PASSIVE AREA,,BELMONT AVE W,BELMONT AVE W,KITCHENER,ONTARIO,CANADA,43.4404954,-80.508644,"BELMONT AVE W, KITCHENER, ONTARIO, CANADA","Belmont Ave W, Kitchener, ON N2M, Canada",,Bing Maps,street
HENRY STURM GREENWAY,GREENWAY,OPEN SPACE/FLOODPLAIN,,WEST AVE,WEST AVE,KITCHENER,ONTARIO,CANADA,43.4424338,-80.5033644,"WEST AVE, KITCHENER, ONTARIO, CANADA","West Ave, Kitchener, ON N2M, Canada",,Bing Maps,street
TILT'S TRAIL,GREENWAY,OPEN SPACE/TRAIL,,TILT DR,TILT DR,KITCHENER,ONTARIO,CANADA,43.3876117,-80.4374351,"TILT DR, KITCHENER, ONTARIO, CANADA","Tilt Dr, Kitchener, ON N2P, Canada",,Bing Maps,street
VICTORIA GREEN,GREEN,OPEN SPACE,460,DAVID ST,460 DAVID ST,KITCHENER,ONTARIO,CANADA,43.4440545,-80.4974165,"DAVID ST, KITCHENER, ONTARIO, CANADA","David St, Kitchener, ON N2G, Canada",,Bing Maps,street
JOSEPH SCHOERG PARK,NEIGHBOURHOOD PARK,HISTORIC SITE,,JOSEPH SCHOERG CRES,JOSEPH SCHOERG CRES,KITCHENER,ONTARIO,CANADA,43.4008807,-80.4154656,"JOSEPH SCHOERG CRES, KITCHENER, ONTARIO, CANADA","Joseph Schoerg Crescent, Kitchener, ON N2P, Canada",,Bing Maps,street
GRAND RIVER NATURAL AREA - OLD COTTAGE LANE,NATURAL AREA,OPEN SPACE/TRAIL,,KESTREL PL,KESTREL PL,KITCHENER,ONTARIO,CANADA,43.4961347,-80.4722495,"KESTREL PL, KITCHENER, ONTARIO, CANADA","Kestrel St, Kitchener, ON N2K, Canada",,Bing Maps,street
JOE THOMPSON PARK,DISTRICT PARK,MAJOR SPORTSFIELD,8,BRIDGE ST E,8 BRIDGE ST E,KITCHENER,ONTARIO,CANADA,43.4799936,-80.4768583,"BRIDGE ST E, KITCHENER, ONTARIO, CANADA","Bridge St E, Kitchener, ON N2K, Canada",,Bing Maps,street
MARIGOLD PARK,GREEN (PARKETTE),PLAY AREA,375,ROBERT FERRIE DR,375 ROBERT FERRIE DR,KITCHENER,ONTARIO,CANADA,43.3782108,-80.4498606,"ROBERT FERRIE DR, KITCHENER, ONTARIO, CANADA","Robert Ferrie Dr, Kitchener, ON N2R, Canada",,Bing Maps,street
WATER TREATMENT TRAIL (REGION),NATURAL AREA,OPEN SPACE/TRAIL,368,MILL PARK RD,368 MILL PARK RD,KITCHENER,ONTARIO,CANADA,43.3958263,-80.4222215,"MILL PARK RD, KITCHENER, ONTARIO, CANADA","Mill Park Dr, Kitchener, ON N2P, Canada",,Bing Maps,street
ROSENBERG PARK,DISTRICT PARK,MAJOR SPORTSFIELD,600,HERITAGE DR,600 HERITAGE DR,KITCHENER,ONTARIO,CANADA,43.4568436,-80.4348903,"HERITAGE DR, KITCHENER, ONTARIO, CANADA","Heritage Dr, Kitchener, ON N2B, Canada",,Bing Maps,street
BORDEN WETLANDS,OPEN SPACE,OPEN SPACE/WOODLAND,1085,FISCHER HALLMAN RD,1085 FISCHER HALLMAN RD,KITCHENER,ONTARIO,CANADA,43.4213466,-80.5164913,"FISCHER HALLMAN RD, KITCHENER, ONTARIO, CANADA","Fischer Hallman Rd, Kitchener, ON N2M, Canada",,Bing Maps,street
WALLENBERG PARK,GREEN (PARKETTE),PASSIVE AREA,160,WEBER ST E,160 WEBER ST E,KITCHENER,ONTARIO,CANADA,43.4436524,-80.4667194,"WEBER ST E, KITCHENER, ONTARIO, CANADA","Weber St E, Kitchener, ON N2H, Canada",,Bing Maps,street
BRIGADOON PARK NATURAL AREA,NEIGHBOURHOOD PARK,TO INPUT,127,BIEHN DR,127 BIEHN DR,KITCHENER,ONTARIO,CANADA,43.3960229,-80.4554545,"BIEHN DR, KITCHENER, ONTARIO, CANADA","Biehn Dr, Kitchener, ON N2R, Canada",,Bing Maps,street
OLD HURON GREEN,GREEN,PASSIVE AREA,119,OLD HURON PL,119 OLD HURON PL,KITCHENER,ONTARIO,CANADA,43.3978392,-80.4539437,"OLD HURON PL, KITCHENER, ONTARIO, CANADA","Old Huron Pl, Kitchener, ON N2E, Canada",,Bing Maps,street
GRAND RIVER NATURAL AREA - BRIDGEPORT TRAIL,NATURAL AREA,OPEN SPACE/TRAIL,44,TYSON DR,44 TYSON DR,KITCHENER,ONTARIO,CANADA,43.4828487,-80.4783307,"TYSON DR, KITCHENER, ONTARIO, CANADA","Tyson Dr, Kitchener, ON N2K, Canada",,Bing Maps,street
LAURENTIAN TRAIL (HYDRO),OPEN SPACE,OPEN SPACE/TRAIL,,LAURENTIAN DR,LAURENTIAN DR,KITCHENER,ONTARIO,CANADA,43.4174342,-80.4992195,"LAURENTIAN DR, KITCHENER, ONTARIO, CANADA","Laurentian Dr, Kitchener, ON N2E, Canada",,Bing Maps,street
WESTCHESTER PARK,NEIGHBOURHOOD PARK,PLAY AREA,173,WESTCHESTER DR,173 WESTCHESTER DR,KITCHENER,ONTARIO,CANADA,43.4614834,-80.433051,"WESTCHESTER DR, KITCHENER, ONTARIO, CANADA","Westchester Dr, Kitchener, ON N2B, Canada",,Bing Maps,street
WINDRUSH PARK,NEIGHBOURHOOD PARK,OPEN SPACE/TRAIL,155,WINDRUSH TRAIL,155 WINDRUSH TRAIL,KITCHENER,ONTARIO,CANADA,43.3819643,-80.4214349,"WINDRUSH TRAIL, KITCHENER, ONTARIO, CANADA","Windrush Trail, Kitchener, ON N2P, Canada",,Bing Maps,street
LUDOLPH TRAIL,OPEN SPACE,OPEN SPACE/TRAIL,,LUDOLPH ST,LUDOLPH ST,KITCHENER,ONTARIO,CANADA,43.382874,-80.4945546,"LUDOLPH ST, KITCHENER, ONTARIO, CANADA","Ludolph St, Kitchener, ON N2R, Canada",,Bing Maps,street
GLENVISTA DR - SWP,OPEN SPACE,OPEN SPACE/SWM,157,SEABROOK DR,157 SEABROOK DR,KITCHENER,ONTARIO,CANADA,43.3859006,-80.4969817,"SEABROOK DR, KITCHENER, ONTARIO, CANADA","Seabrook Dr, Kitchener, ON N2R, Canada",,Bing Maps,street
HOMEWOOD GREEN,GREEN (PARKETTE),OPEN SPACE/TRAIL,161,HOMEWOOD AVE,161 HOMEWOOD AVE,KITCHENER,ONTARIO,CANADA,43.4427033,-80.500322,"HOMEWOOD AVE, KITCHENER, ONTARIO, CANADA","Homewood Ave, Kitchener, ON N2M, Canada",,Bing Maps,street
HIGHGATE ROAD - SWP,OPEN SPACE,OPEN SPACE/SWM,3,HIGHGATE RD,3 HIGHGATE RD,KITCHENER,ONTARIO,CANADA,43.4330563,-80.5493673,"HIGHGATE RD, KITCHENER, ONTARIO, CANADA","Highgate Rd, Kitchener, ON N2N, Canada",,Bing Maps,street
ASH PARK,NEIGHBOURHOOD PARK,PLAY AREA,7,ASH ST,7 ASH ST,KITCHENER,ONTARIO,CANADA,43.4695404,-80.483453,"ASH ST, KITCHENER, ONTARIO, CANADA","Ash St, Kitchener, ON N2H, Canada",,Bing Maps,street
RITTENHOUSE PARK,NEIGHBOURHOOD PARK,MINOR SPORTSFIELD,345,RITTENHOUSE RD,345 RITTENHOUSE RD,KITCHENER,ONTARIO,CANADA,43.4099445,-80.4831502,"RITTENHOUSE RD, KITCHENER, ONTARIO, CANADA","Rittenhouse Rd, Kitchener, ON N2E, Canada",,Bing Maps,street
SOUTH UPPER CANADA PARK,NEIGHBOURHOOD PARK,PLAY AREA,216,PIONEER DR,216 PIONEER DR,KITCHENER,ONTARIO,CANADA,43.3939,-80.4404702,"PIONEER DR, KITCHENER, ONTARIO, CANADA","Pioneer Dr, Kitchener, ON N2P, Canada",,Bing Maps,street
BANCROFT STREET - SWP,OPEN SPACE,OPEN SPACE/SWM,69,BANCROFT ST,69 BANCROFT ST,KITCHENER,ONTARIO,CANADA,43.4400044,-80.431914,"BANCROFT ST, KITCHENER, ONTARIO, CANADA","Bancroft St, Kitchener, ON N2A, Canada",,Bing Maps,street
ISAIAH PL - SWP,OPEN SPACE,OPEN SPACE/SWM,910,ISAIAH PL,910 ISAIAH PL,KITCHENER,ONTARIO,CANADA,43.403621,-80.5214622,"ISAIAH PL, KITCHENER, ONTARIO, CANADA","Isaiah Pl, Kitchener, ON N2E, Canada",,Bing Maps,street
GLENCLIFFE CRT - SWP,OPEN SPACE,OPEN SPACE/SWM,305,KEEWATIN AVE,305 KEEWATIN AVE,KITCHENER,ONTARIO,CANADA,43.4626519,-80.4296449,"KEEWATIN AVE, KITCHENER, ONTARIO, CANADA","Keewatin Ave, Kitchener, ON N2B, Canada",,Bing Maps,street
SCHNEIDER CREEK - NYBERG GREENWAY 3,GREENWAY,OPEN SPACE,,NYBERG ST,NYBERG ST,KITCHENER,ONTARIO,CANADA,43.4392919,-80.4758149,"NYBERG ST, KITCHENER, ONTARIO, CANADA","Nyberg St, Kitchener, ON N2G, Canada",,Bing Maps,street
HYDRO CORRIDOR TRAIL,OPEN SPACE,OPEN SPACE/TRAIL,,THOMAS SLEE DR,THOMAS SLEE DR,KITCHENER,ONTARIO,CANADA,43.374953,-80.4362168,"THOMAS SLEE DR, KITCHENER, ONTARIO, CANADA","Thomas Slee Dr, Kitchener, ON N2P, Canada",,Bing Maps,street
GRAND RIVER NATURAL AREA - SIMS ESTATE,NATURAL AREA,OPEN SPACE/FLOODPLAIN,,EDGEWATER CRES,EDGEWATER CRES,KITCHENER,ONTARIO,CANADA,43.4427071,-80.406561,"EDGEWATER CRES, KITCHENER, ONTARIO, CANADA","Edgewater Crescent, Kitchener, ON N2A, Canada",,Bing Maps,street
VERONICA DRIVE - SWP,OPEN SPACE,OPEN SPACE/SWM,246,VERONICA DR,246 VERONICA DR,KITCHENER,ONTARIO,CANADA,43.4389012,-80.4292848,"VERONICA DR, KITCHENER, ONTARIO, CANADA","Veronica Dr, Kitchener, ON N2A, Canada",,Bing Maps,street
YELLOW BIRCH PARK,NEIGHBOURHOOD PARK,PLAY AREA,135,YELLOW BIRCH DR,135 YELLOW BIRCH DR,KITCHENER,ONTARIO,CANADA,43.4119856,-80.5502401,"YELLOW BIRCH DR, KITCHENER, ONTARIO, CANADA","Yellow Birch Dr, Kitchener, ON N2N, Canada",,Bing Maps,street
KESTREL STREET - SWP,OPEN SPACE,OPEN SPACE/SWM,56,EAGLECREST ST,56 EAGLECREST ST,KITCHENER,ONTARIO,CANADA,43.498088,-80.475628,"EAGLECREST ST, KITCHENER, ONTARIO, CANADA","Eaglecrest St, Kitchener, ON N2K, Canada",,Bing Maps,street
GROVE DRIVE - SWP,OPEN SPACE,OPEN SPACE/SWM,1445,GROVE DR,1445 GROVE DR,KITCHENER,ONTARIO,CANADA,43.4151146,-80.5103653,"GROVE DR, KITCHENER, ONTARIO, CANADA","Grove Dr, Kitchener, ON N2E, Canada",,Bing Maps,street
KNOLLWOOD PARK,NEIGHBOURHOOD PARK,MINOR SPORTSFIELD,175,STIRLING AVE N,175 STIRLING AVE N,KITCHENER,ONTARIO,CANADA,43.4468168,-80.4748266,"STIRLING AVE N, KITCHENER, ONTARIO, CANADA","Stirling Ave N, Kitchener, ON N2H, Canada",,Bing Maps,street
IDLE CREEK DR - SWP#A,OPEN SPACE,OPEN SPACE/SWM,98,IDLE CREEK DR,98 IDLE CREEK DR,KITCHENER,ONTARIO,CANADA,43.4420226,-80.4196592,"IDLE CREEK DR, KITCHENER, ONTARIO, CANADA","Idle Creek Dr, Kitchener, ON N2A, Canada",,Bing Maps,street
HYDRO CORRIDOR TRAIL,OPEN SPACE,OPEN SPACE/TRAIL,,THOMAS SLEE DR,THOMAS SLEE DR,KITCHENER,ONTARIO,CANADA,43.374953,-80.4362168,"THOMAS SLEE DR, KITCHENER, ONTARIO, CANADA","Thomas Slee Dr, Kitchener, ON N2P, Canada",,Bing Maps,street
DOON CREEK NATURAL AREA 1,NATURAL AREA,OPEN SPACE/TRAIL,1317,DOON SOUTH DR,1317 DOON SOUTH DR,KITCHENER,ONTARIO,CANADA,43.3762162,-80.4338862,"DOON SOUTH DR, KITCHENER, ONTARIO, CANADA","Doon South Dr, Kitchener, ON N2P, Canada",,Bing Maps,street
SCHNEIDER CREEK NATURAL AREA,NATURAL AREA,OPEN SPACE/WETLAND,1366,DOON VILLAGE RD,1366 DOON VILLAGE RD,KITCHENER,ONTARIO,CANADA,43.388634,-80.425772,"DOON VILLAGE RD, KITCHENER, ONTARIO, CANADA","Doon Village Rd, Kitchener, ON N2P, Canada",,Bing Maps,street
EBY PARK,NEIGHBOURHOOD PARK,MINOR SPORTSFIELD,137,HOLBORN DR,137 HOLBORN DR,KITCHENER,ONTARIO,CANADA,43.4524243,-80.4349269,"HOLBORN DR, KITCHENER, ONTARIO, CANADA","Holborn Dr, Kitchener, ON N2A, Canada",,Bing Maps,street
FAIRWAY CRES - SWP,OPEN SPACE,OPEN SPACE/SWM,775,FAIRWAY RD N,775 FAIRWAY RD N,KITCHENER,ONTARIO,CANADA,43.4287407,-80.4319771,"FAIRWAY RD N, KITCHENER, ONTARIO, CANADA","Fairway Rd N, Kitchener, ON N2A, Canada",,Bing Maps,street
BEECHCROFT PLACE - SWP,OPEN SPACE,OPEN SPACE/SWM,17,BEECHCROFT PL,17 BEECHCROFT PL,KITCHENER,ONTARIO,CANADA,43.4316634,-80.547046,"BEECHCROFT PL, KITCHENER, ONTARIO, CANADA","Beechcroft Pl, Kitchener, ON N2N, Canada",,Bing Maps,street
COUNTRY CLAIR PARK,NEIGHBOURHOOD PARK,PLAY AREA,34,COUNTRY CLAIR ST,34 COUNTRY CLAIR ST,KITCHENER,ONTARIO,CANADA,43.4478461,-80.4123536,"COUNTRY CLAIR ST, KITCHENER, ONTARIO, CANADA","Country Clair St, Kitchener, ON N2A, Canada",,Bing Maps,street
TILT'S BUSH,OPEN SPACE,OPEN SPACE/TRAIL,,PONDCLIFFE CRT,PONDCLIFFE CRT,KITCHENER,ONTARIO,CANADA,43.3825686,-80.4469326,"PONDCLIFFE CRT, KITCHENER, ONTARIO, CANADA","Pondcliffe Crt, Kitchener, ON N2R, Canada",,Bing Maps,street
TIMBERLANE PARK,NEIGHBOURHOOD PARK,OPEN SPACE/TRAIL,38,TIMBERLANE CRES,38 TIMBERLANE CRES,KITCHENER,ONTARIO,CANADA,43.4188435,-80.546068,"TIMBERLANE CRES, KITCHENER, ONTARIO, CANADA","Timberlane Crescent, Kitchener, ON N2N, Canada",,Bing Maps,street
GUELPH STREET PARK,NEIGHBOURHOOD PARK,PLAY AREA,800,GUELPH ST,800 GUELPH ST,KITCHENER,ONTARIO,CANADA,43.4609797,-80.5005017,"GUELPH ST, KITCHENER, ONTARIO, CANADA","Guelph St, Kitchener, ON N2H, Canada",,Bing Maps,street
COUNTRY HILLS PARK,DISTRICT PARK,MINOR SPORTSFIELD,365,COUNTRY HILL DR,365 COUNTRY HILL DR,KITCHENER,ONTARIO,CANADA,43.4146201,-80.4736797,"COUNTRY HILL DR, KITCHENER, ONTARIO, CANADA","Country Hill Dr, Kitchener, ON N2E, Canada",,Bing Maps,street
GRAND RIVER NATURAL AREA - PIONEER TOWER,NATURAL AREA,OPEN SPACE/FLOODPLAIN,310,LOOKOUT LANE,310 LOOKOUT LANE,KITCHENER,ONTARIO,CANADA,43.4046538,-80.4172672,"LOOKOUT LANE, KITCHENER, ONTARIO, CANADA","Lookout Lane, Kitchener, ON N2P, Canada",,Bing Maps,street
FAIRWAY RD N - SWP,OPEN SPACE,OPEN SPACE/SWM,,FAIRWAY RD N,FAIRWAY RD N,KITCHENER,ONTARIO,CANADA,43.4287407,-80.4319771,"FAIRWAY RD N, KITCHENER, ONTARIO, CANADA","Fairway Rd N, Kitchener, ON N2A, Canada",,Bing Maps,street
WEST OAK TRAIL PARK,GREEN,PARK,80,WEST OAK TRAIL,80 WEST OAK TRAIL,KITCHENER,ONTARIO,CANADA,43.3830017,-80.4957477,"WEST OAK TRAIL, KITCHENER, ONTARIO, CANADA","West Oak Trail, Kitchener, ON N2R, Canada",,Bing Maps,street
TEMPLEWOOD PARK,NEIGHBOURHOOD PARK,PLAY AREA,145,TEMPLEWOOD DR,145 TEMPLEWOOD DR,KITCHENER,ONTARIO,CANADA,43.3917231,-80.4623921,"TEMPLEWOOD DR, KITCHENER, ONTARIO, CANADA","Templewood Dr, Kitchener, ON N2R, Canada",,Bing Maps,street
LACKNER WOODS - SWP,OPEN SPACE,OPEN SPACE/SWM,621,LACKNER BLVD,621 LACKNER BLVD,KITCHENER,ONTARIO,CANADA,43.4550184,-80.4269797,"LACKNER BLVD, KITCHENER, ONTARIO, CANADA","Lackner Blvd, Kitchener, ON N2A, Canada",,Bing Maps,street
GEORGIAN PARK NATURAL AREA,NATURAL AREA,OPEN SPACE/TRAIL,,GEORGIAN CRES,GEORGIAN CRES,KITCHENER,ONTARIO,CANADA,43.4662338,-80.4413001,"GEORGIAN CRES, KITCHENER, ONTARIO, CANADA","Georgian Crescent, Kitchener, ON N2B, Canada",,Bing Maps,street
EDEN OAK PARK,NEIGHBOURHOOD PARK,PLAY AREA,125,EDEN OAK TRAIL,125 EDEN OAK TRAIL,KITCHENER,ONTARIO,CANADA,43.4516919,-80.4038187,"EDEN OAK TRAIL, KITCHENER, ONTARIO, CANADA","Eden Oak Trail, Kitchener, ON N2A, Canada",,Bing Maps,street
FISCHER PARK,DISTRICT PARK,MAJOR SPORTSFIELD,247,FISCHER HALLMAN RD,247 FISCHER HALLMAN RD,KITCHENER,ONTARIO,CANADA,43.4213466,-80.5164913,"FISCHER HALLMAN RD, KITCHENER, ONTARIO, CANADA","Fischer Hallman Rd, Kitchener, ON N2M, Canada",,Bing Maps,street
FALLOWFIELD DR - SWP,OPEN SPACE,OPEN SPACE/SWM,,FALLOWFIELD DR,FALLOWFIELD DR,KITCHENER,ONTARIO,CANADA,43.4168086,-80.4620654,"FALLOWFIELD DR, KITCHENER, ONTARIO, CANADA","Fallowfield Dr, Kitchener, ON N2C, Canada",,Bing Maps,street
HUCK PARK GREENWAY,NEIGHBOURHOOD PARK,PLAY AREA,225,HUCK CRES,225 HUCK CRES,KITCHENER,ONTARIO,CANADA,43.4328807,-80.5525274,"HUCK CRES, KITCHENER, ONTARIO, CANADA","Huck Crescent, Kitchener, ON N2N, Canada",,Bing Maps,street
SHOEMAKER CREEK GREENWAY,GREENWAY,OPEN SPACE/FLOODPLAIN,,KENT AVE,KENT AVE,KITCHENER,ONTARIO,CANADA,43.4410215,-80.479079,"KENT AVE, KITCHENER, ONTARIO, CANADA","Kent Ave, Kitchener, ON N2G, Canada",,Bing Maps,street
HYDRO CORRIDOR TRAIL,OPEN SPACE,OPEN SPACE/TRAIL,1824,BLEAMS RD,1824 BLEAMS RD,KITCHENER,ONTARIO,CANADA,43.4098971,-80.4619459,"BLEAMS RD, KITCHENER, ONTARIO, CANADA","Bleams Rd, Kitchener, ON N2E, Canada",,Bing Maps,street
RIVERS EDGE WALK,GREENWAY,OPEN SPACE/TRAIL,,EDGEHILL DR,EDGEHILL DR,KITCHENER,ONTARIO,CANADA,43.4049093,-80.3933662,"EDGEHILL DR, KITCHENER, ONTARIO, CANADA","Edgehill Dr, Kitchener, ON N2P, Canada",,Bing Maps,street
MIDLAND PARK (WCDSB),NEIGHBOURHOOD PARK,PARK,39,MIDLAND DR,39 MIDLAND DR,KITCHENER,ONTARIO,CANADA,43.4487649,-80.4476079,"MIDLAND DR, KITCHENER, ONTARIO, CANADA","Midland Dr, Kitchener, ON N2A, Canada",,Bing Maps,street
ROCHEFORT PARK,NEIGHBOURHOOD PARK,PASSIVE AREA,136,ROCHEFORT ST,136 ROCHEFORT ST,KITCHENER,ONTARIO,CANADA,43.3852825,-80.477642,"ROCHEFORT ST, KITCHENER, ONTARIO, CANADA","Rochefort St, Kitchener, ON N2R, Canada",,Bing Maps,street
MIDLAND PARK,NEIGHBOURHOOD PARK,MINOR SPORTSFIELD,505,FRANKLIN ST N,505 FRANKLIN ST N,KITCHENER,ONTARIO,CANADA,43.4383965,-80.4457932,"FRANKLIN ST N, KITCHENER, ONTARIO, CANADA","Franklin St N, Kitchener, ON N2A, Canada",,Bing Maps,street
HIBNER PARK,GREEN (PARKETTE),PLAY AREA,70,AHRENS ST W,70 AHRENS ST W,KITCHENER,ONTARIO,CANADA,43.4633369,-80.4981796,"AHRENS ST W, KITCHENER, ONTARIO, CANADA","Ahrens St W, Kitchener, ON N2H, Canada",,Bing Maps,street
SILVER GREEN,GREEN (PARKETTE),OPEN SPACE/TRAIL,,SILVER ASPEN CRES,SILVER ASPEN CRES,KITCHENER,ONTARIO,CANADA,43.4240444,-80.5254214,"SILVER ASPEN CRES, KITCHENER, ONTARIO, CANADA","Silver Aspen Crescent, Kitchener, ON N2N, Canada",,Bing Maps,street
WEST OAK TRAIL -  SWP,OPEN SPACE,OPEN SPACE/SWM,,WEST OAK TRAIL,WEST OAK TRAIL,KITCHENER,ONTARIO,CANADA,43.3830017,-80.4957477,"WEST OAK TRAIL, KITCHENER, ONTARIO, CANADA","West Oak Trail, Kitchener, ON N2R, Canada",,Bing Maps,street
MILL ST PARKETTE,GREEN (PARKETTE),OPEN SPACE/TRAIL,346,MILL ST,346 MILL ST,KITCHENER,ONTARIO,CANADA,43.4357643,-80.4856305,"MILL ST, KITCHENER, ONTARIO, CANADA","Mill St, Kitchener, ON N2M, Canada",,Bing Maps,street
EASTFOREST PARK,NEIGHBOURHOOD PARK,MINOR SPORTSFIELD,140,EASTFOREST TRAIL,140 EASTFOREST TRAIL,KITCHENER,ONTARIO,CANADA,43.4328474,-80.538877,"EASTFOREST TRAIL, KITCHENER, ONTARIO, CANADA","Eastforest Trail, Kitchener, ON N2N, Canada",,Bing Maps,street
TILT TRAIL PARK AND GREENWAY,GREENWAY,OPEN SPACE/TRAIL,,ELMBANK TRAIL,ELMBANK TRAIL,KITCHENER,ONTARIO,CANADA,43.3759558,-80.4462141,"ELMBANK TRAIL, KITCHENER, ONTARIO, CANADA","Elmbank Trail, Kitchener, ON N2R, Canada",,Bing Maps,street
LAURENTIAN WETLAND,NATURAL AREA,OPEN SPACE/WETLAND,,DAVID BERGEY DR,DAVID BERGEY DR,KITCHENER,ONTARIO,CANADA,43.4067923,-80.5188309,"DAVID BERGEY DR, KITCHENER, ONTARIO, CANADA","David Bergey Dr, Kitchener, ON N2E, Canada",,Bing Maps,street
CHAPEL HILL CRT - SWP,OPEN SPACE,OPEN SPACE/SWM,,CHAPEL HILL DRT,CHAPEL HILL DRT,KITCHENER,ONTARIO,CANADA,43.3816211,-80.4515385,"CHAPEL HILL DRT, KITCHENER, ONTARIO, CANADA","Chapel Hill Dr, Kitchener, ON N2R, Canada",,Bing Maps,street
FOX GLOVE PARK,NEIGHBOURHOOD PARK,PLAY AREA,20,FOXGLOVE CRES,20 FOXGLOVE CRES,KITCHENER,ONTARIO,CANADA,43.4122022,-80.5240021,"FOXGLOVE CRES, KITCHENER, ONTARIO, CANADA","Foxglove Crescent, Kitchener, ON N2E, Canada",,Bing Maps,street
RIVER RIDGE PARK,NEIGHBOURHOOD PARK,PLAY AREA,144,HAWKSWOOD DR,144 HAWKSWOOD DR,KITCHENER,ONTARIO,CANADA,43.495481,-80.477612,"HAWKSWOOD DR, KITCHENER, ONTARIO, CANADA","Hawkswood Dr, Kitchener, ON N2K, Canada",,Bing Maps,street
HILLSIDE PARK,NEIGHBOURHOOD PARK,MINOR SPORTSFIELD,15,HILL ST,15 HILL ST,KITCHENER,ONTARIO,CANADA,43.4639702,-80.4850293,"HILL ST, KITCHENER, ONTARIO, CANADA","Hill St, Kitchener, ON N2H, Canada",,Bing Maps,street
FERGUSON HERITAGE GREEN,GREEN (PARKETTE),HISTORIC SITE,,ORR CRT,ORR CRT,KITCHENER,ONTARIO,CANADA,43.3825022,-80.4937276,"ORR CRT, KITCHENER, ONTARIO, CANADA","Orr Crt, Kitchener, ON N2R, Canada",,Bing Maps,street
HEWITT PARK,NEIGHBOURHOOD PARK,PLAY AREA,269,SEABROOK DR,269 SEABROOK DR,KITCHENER,ONTARIO,CANADA,43.3859006,-80.4969817,"SEABROOK DR, KITCHENER, ONTARIO, CANADA","Seabrook Dr, Kitchener, ON N2R, Canada",,Bing Maps,street
IDLEWOOD GREENWAY,GREENWAY,OPEN SPACE/TRAIL,,OLDFIELD DR TO BRIERDALE DR,OLDFIELD DR TO BRIERDALE DR,KITCHENER,ONTARIO,CANADA,43.4491999,-80.4262333,"OLDFIELD DR TO BRIERDALE DR, KITCHENER, ONTARIO, CANADA","Oldfield Dr & Brierdale Dr, Kitchener, ON N2A, Canada",,Bing Maps,intersection
DOON SOUTH CREEK NATURAL AREA 2,NATURAL AREA,OPEN SPACE/WETLAND,,GROH DR,GROH DR,KITCHENER,ONTARIO,CANADA,43.376492,-80.4397436,"GROH DR, KITCHENER, ONTARIO, CANADA","Groh Dr, Kitchener, ON N2R, Canada",,Bing Maps,street
BALZER RD - SWP,OPEN SPACE,OPEN SPACE/SWM,151,BALZER RD,151 BALZER RD,KITCHENER,ONTARIO,CANADA,43.4187905,-80.4565733,"BALZER RD, KITCHENER, ONTARIO, CANADA","Balzer Rd, Kitchener, ON N2C, Canada",,Bing Maps,street
OTTERBEIN RD - SWP,OPEN SPACE,OPEN SPACE/SWM,,OTTERBEIN RD,OTTERBEIN RD,KITCHENER,ONTARIO,CANADA,43.4661391,-80.4304205,"OTTERBEIN RD, KITCHENER, ONTARIO, CANADA","Otterbein Rd, Kitchener, ON N2B, Canada",,Bing Maps,street
RIDGEMOUNT ST - SWP,OPEN SPACE,OPEN SPACE/SWM,,RIDGEMOUNT ST,RIDGEMOUNT ST,KITCHENER,ONTARIO,CANADA,43.3787776,-80.4178764,"RIDGEMOUNT ST, KITCHENER, ONTARIO, CANADA","Ridgemount St, Kitchener, ON N2P, Canada",,Bing Maps,street
KINZIE PARK,NEIGHBOURHOOD PARK,PLAY AREA,300,KINZIE AVE,300 KINZIE AVE,KITCHENER,ONTARIO,CANADA,43.4336732,-80.4353971,"KINZIE AVE, KITCHENER, ONTARIO, CANADA","Kinzie Ave, Kitchener, ON N2A, Canada",,Bing Maps,street
NORTH TRAIL,GREENWAY,OPEN SPACE/TRAIL,,GLASGOW ST TO NORTHFOREST TRAIL,GLASGOW ST TO NORTHFOREST TRAIL,KITCHENER,ONTARIO,CANADA,43.4304518,-80.5614296,"GLASGOW ST TO NORTHFOREST TRAIL, KITCHENER, ONTARIO, CANADA","Glasgow St, Kitchener, ON N2N, Canada",,Bing Maps,street
VOGELSANG GREEN,GREEN (PARKETTE),PASSIVE AREA,15,DUKE ST E,15 DUKE ST E,KITCHENER,ONTARIO,CANADA,43.4495412,-80.4848614,"DUKE ST E, KITCHENER, ONTARIO, CANADA","Duke St E, Kitchener, ON N2H, Canada",,Bing Maps,street
KNITTING MILL GREEN,GREEN (PARKETTE),PASSIVE AREA,71,MILL ST,71 MILL ST,KITCHENER,ONTARIO,CANADA,43.4357643,-80.4856305,"MILL ST, KITCHENER, ONTARIO, CANADA","Mill St, Kitchener, ON N2M, Canada",,Bing Maps,street
THOMAS SLEE COMMUNITY PARK,OPEN SPACE,OPEN SPACE/TRAIL,,THOMAS SLEE DR,THOMAS SLEE DR,KITCHENER,ONTARIO,CANADA,43.374953,-80.4362168,"THOMAS SLEE DR, KITCHENER, ONTARIO, CANADA","Thomas Slee Dr, Kitchener, ON N2P, Canada",,Bing Maps,street
MEADOWRIDGE ST - SWP,OPEN SPACE,OPEN SPACE/SWM,37,MEADOWRIDGE ST,37 MEADOWRIDGE ST,KITCHENER,ONTARIO,CANADA,43.3741465,-80.440605,"MEADOWRIDGE ST, KITCHENER, ONTARIO, CANADA","Meadowridge St, Kitchener, ON N2P, Canada",,Bing Maps,street
LACKNER WOODS NATURAL AREA,NATURAL AREA,OPEN SPACE/WOODLAND,621,LACKNER BLVD,621 LACKNER BLVD,KITCHENER,ONTARIO,CANADA,43.4550184,-80.4269797,"LACKNER BLVD, KITCHENER, ONTARIO, CANADA","Lackner Blvd, Kitchener, ON N2A, Canada",,Bing Maps,street
BRIGADOON WOODS,NATURAL AREA,OPEN SPACE/WOODLAND,,STRASBURG RD,STRASBURG RD,KITCHENER,ONTARIO,CANADA,43.4025882,-80.4695072,"STRASBURG RD, KITCHENER, ONTARIO, CANADA","Strasburg Rd, Kitchener, ON N2R, Canada",,Bing Maps,street
FALLOWFIELD PARK NATURAL AREA,NATURAL AREA,OPEN SPACE/WOODLAND,,FALLVIEW CRT,FALLVIEW CRT,KITCHENER,ONTARIO,CANADA,43.413279,-80.4612146,"FALLVIEW CRT, KITCHENER, ONTARIO, CANADA","Fallview Crt, Kitchener, ON N2C, Canada",,Bing Maps,street
BECHTEL PARK NATURAL AREA (MTO),NATURAL AREA,OPEN SPACE/WOODLAND,,SPRINGDALE DR,SPRINGDALE DR,KITCHENER,ONTARIO,CANADA,43.4774643,-80.4929348,"SPRINGDALE DR, KITCHENER, ONTARIO, CANADA","Springdale Dr, Kitchener, ON N2K, Canada",,Bing Maps,street
HOMER WATSON PARK (GRCA),NATURAL AREA,OPEN SPACE/WOODLAND,14,MILL PARK DR,14 MILL PARK DR,KITCHENER,ONTARIO,CANADA,43.3960759,-80.420444,"MILL PARK DR, KITCHENER, ONTARIO, CANADA","Mill Park Dr, Kitchener, ON N2P, Canada",,Bing Maps,street
WOOLWICH STREET WOODLOT,NATURAL AREA,OPEN SPACE/WOODLAND,,WOOLWICH ST,WOOLWICH ST,KITCHENER,ONTARIO,CANADA,43.4867319,-80.4831637,"WOOLWICH ST, KITCHENER, ONTARIO, CANADA","Woolwich St, Kitchener, ON N2K, Canada",,Bing Maps,street
WINIFRED WOODS NATURAL AREA,NATURAL AREA,OPEN SPACE/WOODLAND,44,WINIFRED PL,44 WINIFRED PL,KITCHENER,ONTARIO,CANADA,43.4105533,-80.4060676,"WINIFRED PL, KITCHENER, ONTARIO, CANADA","Winifred St, Kitchener, ON N2P, Canada",,Bing Maps,street
TOPPER WOODS NATURAL AREA,NATURAL AREA,OPEN SPACE/WOODLAND,404,DOON SOUTH DR,404 DOON SOUTH DR,KITCHENER,ONTARIO,CANADA,43.3762162,-80.4338862,"DOON SOUTH DR, KITCHENER, ONTARIO, CANADA","Doon South Dr, Kitchener, ON N2P, Canada",,Bing Maps,street
EBY WOODS NATURAL AREA,NATURAL AREA,OPEN SPACE/WOODLAND,,GRAVEL RIDGE PL,GRAVEL RIDGE PL,KITCHENER,ONTARIO,CANADA,43.4032293,-80.5267853,"GRAVEL RIDGE PL, KITCHENER, ONTARIO, CANADA","Gravel Ridge Pl, Kitchener, ON N2E, Canada",,Bing Maps,street
LACKNER WOODS (PRIVATE),NATURAL AREA,OPEN SPACE/WOODLAND,,LACKNER BLVD,LACKNER BLVD,KITCHENER,ONTARIO,CANADA,43.4550184,-80.4269797,"LACKNER BLVD, KITCHENER, ONTARIO, CANADA","Lackner Blvd, Kitchener, ON N2A, Canada",,Bing Maps,street
NATCHEZ WOODS,NATURAL AREA,OPEN SPACE/WOODLAND,,EBYDALE DR,EBYDALE DR,KITCHENER,ONTARIO,CANADA,43.4551133,-80.4300025,"EBYDALE DR, KITCHENER, ONTARIO, CANADA","Ebydale Dr, Kitchener, ON N2A, Canada",,Bing Maps,street
PINNACLE HILL NATURAL AREA,NATURAL AREA,OPEN SPACE/WOODLAND,,HOMER WATSON BLVD,HOMER WATSON BLVD,KITCHENER,ONTARIO,CANADA,43.386724,-80.4119148,"HOMER WATSON BLVD, KITCHENER, ONTARIO, CANADA","Homer Watson Blvd, Kitchener, ON N2P, Canada",,Bing Maps,street
MAUSSER PARK,NEIGHBOURHOOD PARK,PLAY AREA,219,STIRLING AVE S,219 STIRLING AVE S,KITCHENER,ONTARIO,CANADA,43.4410234,-80.4843618,"STIRLING AVE S, KITCHENER, ONTARIO, CANADA","Stirling Ave S, Kitchener, ON N2G, Canada",,Bing Maps,street
HART GREEN,GREEN (PARKETTE),PASSIVE AREA,274,HARTWOOD PL,274 HARTWOOD PL,KITCHENER,ONTARIO,CANADA,43.4654852,-80.4991434,"HARTWOOD PL, KITCHENER, ONTARIO, CANADA","Hartwood Pl, Kitchener, ON N2H, Canada",,Bing Maps,street
MAPLE LANE GREEN,GREEN (PARKETTE),OPEN SPACE/TRAIL,35,BREITHAUPT ST,35 BREITHAUPT ST,KITCHENER,ONTARIO,CANADA,43.4556527,-80.4949792,"BREITHAUPT ST, KITCHENER, ONTARIO, CANADA","Breithaupt St, Kitchener, ON N2H, Canada",,Bing Maps,street
DIXON GREEN,GREEN (PARKETTE),PASSIVE AREA,125,DIXON ST,125 DIXON ST,KITCHENER,ONTARIO,CANADA,43.431674,-80.4649128,"DIXON ST, KITCHENER, ONTARIO, CANADA","Dixon St, Kitchener, ON N2G, Canada",,Bing Maps,street
FORLER GREEN (PRIVATE),GREEN (PARKETTE),PASSIVE AREA,50,STONYBROOK DR,50 STONYBROOK DR,KITCHENER,ONTARIO,CANADA,43.4249784,-80.5118177,"STONYBROOK DR, KITCHENER, ONTARIO, CANADA","Stonybrook Dr, Kitchener, ON N2M, Canada",,Bing Maps,street
WALDAU WOODS,NATURAL AREA,OPEN SPACE/TRAIL,19,PENELOPE DR,19 PENELOPE DR,KITCHENER,ONTARIO,CANADA,43.420164,-80.5555145,"PENELOPE DR, KITCHENER, ONTARIO, CANADA","Penelope Dr, Kitchener, ON N2N, Canada",,Bing Maps,street
TILT'S BUSH,NATURAL AREA,OPEN SPACE/WOODLAND,139,BECHTEL DR,139 BECHTEL DR,KITCHENER,ONTARIO,CANADA,43.389975,-80.4447582,"BECHTEL DR, KITCHENER, ONTARIO, CANADA","Bechtel Dr, Kitchener, ON N2P, Canada",,Bing Maps,street
STECKLE WOODS,NATURAL AREA,OPEN SPACE/WOODLAND,,BLEAMS RD,BLEAMS RD,KITCHENER,ONTARIO,CANADA,43.4098971,-80.4619459,"BLEAMS RD, KITCHENER, ONTARIO, CANADA","Bleams Rd, Kitchener, ON N2E, Canada",,Bing Maps,street
LORILEE PARK NATURAL AREA,NATURAL AREA,OPEN SPACE/WOODLAND,139,LORILEE CRES,139 LORILEE CRES,KITCHENER,ONTARIO,CANADA,43.4176844,-80.5317857,"LORILEE CRES, KITCHENER, ONTARIO, CANADA","Lorilee Crescent, Kitchener, ON N2N, Canada",,Bing Maps,street
STAUFFER COMMUNITY PARK NATURAL AREA,NATURAL AREA,OPEN SPACE/WOODLAND,,STAUFFER DR,STAUFFER DR,KITCHENER,ONTARIO,CANADA,43.3756489,-80.4448755,"STAUFFER DR, KITCHENER, ONTARIO, CANADA","Stauffer Dr, Kitchener, ON N2P, Canada",,Bing Maps,street
WOOLNER WOODS,NATURAL AREA,OPEN SPACE/WOODLAND,,WOOLNER DR,WOOLNER DR,KITCHENER,ONTARIO,CANADA,43.4468902,-80.4037561,"WOOLNER DR, KITCHENER, ONTARIO, CANADA","Woolner Trail, Kitchener, ON N2A, Canada",,Bing Maps,street
STRASBURG WOODS NATURAL AREA,NATURAL AREA,OPEN SPACE/WOODLAND,,STRASBURG RD,STRASBURG RD,KITCHENER,ONTARIO,CANADA,43.4025882,-80.4695072,"STRASBURG RD, KITCHENER, ONTARIO, CANADA","Strasburg Rd, Kitchener, ON N2R, Canada",,Bing Maps,street
SUSSEX GREENWAY,GREENWAY,OPEN SPACE/TRAIL,,RIDGEMOUNT ST,RIDGEMOUNT ST,KITCHENER,ONTARIO,CANADA,43.3787776,-80.4178764,"RIDGEMOUNT ST, KITCHENER, ONTARIO, CANADA","Ridgemount St, Kitchener, ON N2P, Canada",,Bing Maps,street
DOON VILLAGE NATURAL AREA,NATURAL AREA,UNKNOWN,135,PIONEER DR,135 PIONEER DR,KITCHENER,ONTARIO,CANADA,43.3939,-80.4404702,"PIONEER DR, KITCHENER, ONTARIO, CANADA","Pioneer Dr, Kitchener, ON N2P, Canada",,Bing Maps,street
ACTIVA SPORTSPLEX NATURAL AREA,NATURAL AREA,OPEN SPACE/WOODLAND,135,LENNOX LEWIS WAY,135 LENNOX LEWIS WAY,KITCHENER,ONTARIO,CANADA,43.4208886,-80.4655882,"LENNOX LEWIS WAY, KITCHENER, ONTARIO, CANADA","Lennox Lewis Way, Kitchener, ON N2C, Canada",,Bing Maps,street
DODGE PARK,NEIGHBOURHOOD PARK,PARK,415,BLAIR CREEK DR,415 BLAIR CREEK DR,KITCHENER,ONTARIO,CANADA,43.3717976,-80.4299264,"BLAIR CREEK DR, KITCHENER, ONTARIO, CANADA","Blair Creek Dr, Kitchener, ON N2P, Canada",,Bing Maps,street
MONARCH WOODS,NATURAL AREA,OPEN SPACE/WOODLAND,166,FISCHER HALLMAN RD,166 FISCHER HALLMAN RD,KITCHENER,ONTARIO,CANADA,43.4213466,-80.5164913,"FISCHER HALLMAN RD, KITCHENER, ONTARIO, CANADA","Fischer Hallman Rd, Kitchener, ON N2M, Canada",,Bing Maps,street
SUMMERSIDE WOODS PARK NATURAL AREA,NATURAL AREA,OPEN SPACE/WOODLAND,,VICTORIA ST,VICTORIA ST,KITCHENER,ONTARIO,CANADA,43.446906,-80.5041527,"VICTORIA ST, KITCHENER, ONTARIO, CANADA","Victoria St S, Kitchener, ON N2G, Canada",,Bing Maps,street
HOMER WATSON PARK (REGION),NATURAL AREA,OPEN SPACE/WOODLAND,345,MILL PARK DR,345 MILL PARK DR,KITCHENER,ONTARIO,CANADA,43.3960759,-80.420444,"MILL PARK DR, KITCHENER, ONTARIO, CANADA","Mill Park Dr, Kitchener, ON N2P, Canada",,Bing Maps,street
SHADYRIDGE WOODS,NATURAL AREA,OPEN SPACE/WOODLAND,,SHADYRIDGE PL,SHADYRIDGE PL,KITCHENER,ONTARIO,CANADA,43.4335484,-80.5469216,"SHADYRIDGE PL, KITCHENER, ONTARIO, CANADA","Shadyridge Pl, Kitchener, ON N2N, Canada",,Bing Maps,street
IAN ORMSTON PARK NATURAL AREA,NEIGHBOURHOOD PARK,PARK,105,IAN ORMSTON DR,105 IAN ORMSTON DR,KITCHENER,ONTARIO,CANADA,43.3780156,-80.4195689,"IAN ORMSTON DR, KITCHENER, ONTARIO, CANADA","Ian Ormston Dr, Kitchener, ON N2P, Canada",,Bing Maps,street
RADDATZ PARK NATURAL AREA,NATURAL AREA,OPEN SPACE/WOODLAND,110,GAGE AVE,110 GAGE AVE,KITCHENER,ONTARIO,CANADA,43.447291,-80.5144295,"GAGE AVE, KITCHENER, ONTARIO, CANADA","Gage Ave, Kitchener, ON N2M, Canada",,Bing Maps,street
ALPINE PARK NATURAL AREA,NATURAL AREA,MINOR SPORTSFIELD,175,KINGSWOOD DR,175 KINGSWOOD DR,KITCHENER,ONTARIO,CANADA,43.4208041,-80.4749999,"KINGSWOOD DR, KITCHENER, ONTARIO, CANADA","Kingswood Dr, Kitchener, ON N2E, Canada",,Bing Maps,street
ROCKCLIFFE DR - SWP,OPEN SPACE,OPEN SPACE/SWM,192,ROCKCLIFFE DR,192 ROCKCLIFFE DR,KITCHENER,ONTARIO,CANADA,43.3819338,-80.4718743,"ROCKCLIFFE DR, KITCHENER, ONTARIO, CANADA","Rockcliffe Dr, Kitchener, ON N2R, Canada",,Bing Maps,street
AMAND DRIVE - SWP,OPEN SPACE,OPEN SPACE/SWM,,AMAND DR,AMAND DR,KITCHENER,ONTARIO,CANADA,43.3824726,-80.5002839,"AMAND DR, KITCHENER, ONTARIO, CANADA","Amand Dr, Kitchener, ON N2R, Canada",,Bing Maps,street
HUCK PARK GREENWAY - SWP,OPEN SPACE,OPEN SPACE/SWM,231,HUCK CRES,231 HUCK CRES,KITCHENER,ONTARIO,CANADA,43.4328807,-80.5525274,"HUCK CRES, KITCHENER, ONTARIO, CANADA","Huck Crescent, Kitchener, ON N2N, Canada",,Bing Maps,street
CONCORDIA PARK GREENWAY,GREENWAY,OPEN SPACE/TRAIL,25,GREENBROOK DR,25 GREENBROOK DR,KITCHENER,ONTARIO,CANADA,43.4252943,-80.5118468,"GREENBROOK DR, KITCHENER, ONTARIO, CANADA","Greenbrook Dr, Kitchener, ON N2M, Canada",,Bing Maps,street
ERINBROOK PARK GREENWAY,GREENWAY,OPEN SPACE/TRAIL,,ERINBROOK DR,ERINBROOK DR,KITCHENER,ONTARIO,CANADA,43.411495,-80.491005,"ERINBROOK DR, KITCHENER, ONTARIO, CANADA","Erinbrook Dr, Kitchener, ON N2E, Canada",,Bing Maps,street
EBY WOODS TRAIL,OPEN SPACE,OPEN SPACE/TRAIL,,OTTAWA ST S,OTTAWA ST S,KITCHENER,ONTARIO,CANADA,43.4371667,-80.476698,"OTTAWA ST S, KITCHENER, ONTARIO, CANADA","Ottawa St S, Kitchener, ON N2G, Canada",,Bing Maps,street
GRAND RIVER NATURAL AREA - HIDDEN VALLEY,NATURAL AREA,OPEN SPACE/FLOODPLAIN,2095,HIDDEN VALLEY CRES,2095 HIDDEN VALLEY CRES,KITCHENER,ONTARIO,CANADA,43.4139044,-80.4190148,"HIDDEN VALLEY CRES, KITCHENER, ONTARIO, CANADA","Hidden Valley Crescent, Kitchener, ON N2C, Canada",,Bing Maps,street
HENRY STURM GREENWAY/FENWICK GREENWAY,GREENWAY,OPEN SPACE/TRAIL,,WEST AVE,WEST AVE,KITCHENER,ONTARIO,CANADA,43.4424338,-80.5033644,"WEST AVE, KITCHENER, ONTARIO, CANADA","West Ave, Kitchener, ON N2M, Canada",,Bing Maps,street
HENRY STURM GREENWAY - RESURRECTION,GREENWAY,OPEN SPACE/TRAIL,,RESURRECTION DR,RESURRECTION DR,KITCHENER,ONTARIO,CANADA,43.436847,-80.550293,"RESURRECTION DR, KITCHENER, ONTARIO, CANADA","Resurrection Dr, Kitchener, ON N2N, Canada",,Bing Maps,street
FILSINGER PARK WEST NATURAL AREA,NATURAL AREA,OPEN SPACE/TRAIL,,LAWRENCE AVE,LAWRENCE AVE,KITCHENER,ONTARIO,CANADA,43.4383482,-80.5103775,"LAWRENCE AVE, KITCHENER, ONTARIO, CANADA","Lawrence Ave, Kitchener, ON N2M, Canada",,Bing Maps,street
HEARTHWOOD TRAIL,GREENWAY,OPEN SPACE/TRAIL,,HEARTHWOOD DR,HEARTHWOOD DR,KITCHENER,ONTARIO,CANADA,43.3816282,-80.4543802,"HEARTHWOOD DR, KITCHENER, ONTARIO, CANADA","Hearthwood Dr, Kitchener, ON N2R, Canada",,Bing Maps,street
RITTENHOUSE PARK GREENWAY,GREENWAY,OPEN SPACE/TRAIL,,RITTENHOUSE RD,RITTENHOUSE RD,KITCHENER,ONTARIO,CANADA,43.4099445,-80.4831502,"RITTENHOUSE RD, KITCHENER, ONTARIO, CANADA","Rittenhouse Rd, Kitchener, ON N2E, Canada",,Bing Maps,street
SCHNEIDER CREEK MANITOU GREENWAY,GREENWAY,OPEN SPACE/TRAIL,36,MANITOU DR,36 MANITOU DR,KITCHENER,ONTARIO,CANADA,43.4184309,-80.4530933,"MANITOU DR, KITCHENER, ONTARIO, CANADA","Manitou Dr, Kitchener, ON N2C, Canada",,Bing Maps,street
UPPER CANADA PARK,NEIGHBOURHOOD PARK,PLAY AREA,216,FARRIER DR,216 FARRIER DR,KITCHENER,ONTARIO,CANADA,43.3976715,-80.4400547,"FARRIER DR, KITCHENER, ONTARIO, CANADA","Farrier Dr, Kitchener, ON N2P, Canada",,Bing Maps,street
VETERANS' PARK GREENWAY,GREENWAY,OPEN SPACE,,ST CLAIR AVE,ST CLAIR AVE,KITCHENER,ONTARIO,CANADA,43.4376336,-80.4956308,"ST CLAIR AVE, KITCHENER, ONTARIO, CANADA","St Clair Ave, Kitchener, ON N2M, Canada",,Bing Maps,street
WILLOWLAKE PARK GREENWAY,OPEN SPACE,OPEN SPACE/TRAIL,1851,OLD MILL RD,1851 OLD MILL RD,KITCHENER,ONTARIO,CANADA,43.3934933,-80.41451,"OLD MILL RD, KITCHENER, ONTARIO, CANADA","Old Mill Rd, Kitchener, ON N2P, Canada",,Bing Maps,street
COUNTRYSTONE PARK,NEIGHBOURHOOD PARK,TO INPUT,1086,COUNTRYSTONE DR,1086 COUNTRYSTONE DR,KITCHENER,ONTARIO,CANADA,43.4376424,-80.5530452,"COUNTRYSTONE DR, KITCHENER, ONTARIO, CANADA","Countrystone Dr, Kitchener, ON N2N, Canada",,Bing Maps,street
HIGHBROOK GREENWAY,GREENWAY,OPEN SPACE/TRAIL,,HIGHBROOK ST,HIGHBROOK ST,KITCHENER,ONTARIO,CANADA,43.4094539,-80.4999483,"HIGHBROOK ST, KITCHENER, ONTARIO, CANADA","Highbrook St, Kitchener, ON N2E, Canada",,Bing Maps,street
HIGHBROOK PARK,NEIGHBOURHOOD PARK,PLAY AREA,110,HIGHBROOK ST,110 HIGHBROOK ST,KITCHENER,ONTARIO,CANADA,43.4094539,-80.4999483,"HIGHBROOK ST, KITCHENER, ONTARIO, CANADA","Highbrook St, Kitchener, ON N2E, Canada",,Bing Maps,street
RIVER BIRCH PARK - SWP,OPEN SPACE,OPEN SPACE/SWM,900,RIVER BIRCH CRT,900 RIVER BIRCH CRT,KITCHENER,ONTARIO,CANADA,43.412217,-80.4268419,"RIVER BIRCH CRT, KITCHENER, ONTARIO, CANADA","River Birch Crt, Kitchener, ON N2C, Canada",,Bing Maps,street
SPRINGMOUNT PARK - SWP,OPEN SPACE,OPEN SPACE/SWM,27,SPRINGMOUNT DR,27 SPRINGMOUNT DR,KITCHENER,ONTARIO,CANADA,43.4478566,-80.4245268,"SPRINGMOUNT DR, KITCHENER, ONTARIO, CANADA","Springmount Dr, Kitchener, ON N2A, Canada",,Bing Maps,street
PATRICIA PARK,NEIGHBOURHOOD PARK,PARK,360,PATRICIA AVE,360 PATRICIA AVE,KITCHENER,ONTARIO,CANADA,43.4418733,-80.5060033,"PATRICIA AVE, KITCHENER, ONTARIO, CANADA","Patricia Ave, Kitchener, ON N2M, Canada",,Bing Maps,street
RESURRECTION PARK,NEIGHBOURHOOD PARK,OPEN SPACE/TRAIL,71,RESURRECTION DR,71 RESURRECTION DR,KITCHENER,ONTARIO,CANADA,43.436847,-80.550293,"RESURRECTION DR, KITCHENER, ONTARIO, CANADA","Resurrection Dr, Kitchener, ON N2N, Canada",,Bing Maps,street
BATTLER ROAD GREENWAY - SWP,OPEN SPACE,OPEN SPACE/SWM,225,OLD HURON RD,225 OLD HURON RD,KITCHENER,ONTARIO,CANADA,43.3950465,-80.4615035,"OLD HURON RD, KITCHENER, ONTARIO, CANADA","Old Huron Rd, Kitchener, ON N2R, Canada",,Bing Maps,street
OXFORD ST PARK,OPEN SPACE,OPEN SPACE/TRAIL,291,OXFORD ST,291 OXFORD ST,KITCHENER,ONTARIO,CANADA,43.4698611,-80.4868706,"OXFORD ST, KITCHENER, ONTARIO, CANADA","Oxford St, Kitchener, ON N2H, Canada",,Bing Maps,street
LAURENTIAN WETLAND - SWP,OPEN SPACE,OPEN SPACE/SWM,,DAVID BERGEY DR,DAVID BERGEY DR,KITCHENER,ONTARIO,CANADA,43.4067923,-80.5188309,"DAVID BERGEY DR, KITCHENER, ONTARIO, CANADA","David Bergey Dr, Kitchener, ON N2E, Canada",,Bing Maps,street
RITTENHOUSE PARK - SWP,OPEN SPACE,OPEN SPACE/SWM,345,RITTENHOUSE RD,345 RITTENHOUSE RD,KITCHENER,ONTARIO,CANADA,43.4099445,-80.4831502,"RITTENHOUSE RD, KITCHENER, ONTARIO, CANADA","Rittenhouse Rd, Kitchener, ON N2E, Canada",,Bing Maps,street
SCHOOL CREEK NATURAL AREA,NATURAL AREA,OPEN SPACE/TRAIL,50,DOON SOUTH DR,50 DOON SOUTH DR,KITCHENER,ONTARIO,CANADA,43.3762162,-80.4338862,"DOON SOUTH DR, KITCHENER, ONTARIO, CANADA","Doon South Dr, Kitchener, ON N2P, Canada",,Bing Maps,street
SCHOOL CREEK - SWP,OPEN SPACE,OPEN SPACE/SWM,50,DOON SOUTH DR,50 DOON SOUTH DR,KITCHENER,ONTARIO,CANADA,43.3762162,-80.4338862,"DOON SOUTH DR, KITCHENER, ONTARIO, CANADA","Doon South Dr, Kitchener, ON N2P, Canada",,Bing Maps,street
WINIFRED WOODS - SWP,OPEN SPACE,OPEN SPACE/SWM,44,WINIFRED PL,44 WINIFRED PL,KITCHENER,ONTARIO,CANADA,43.4105533,-80.4060676,"WINIFRED PL, KITCHENER, ONTARIO, CANADA","Winifred St, Kitchener, ON N2P, Canada",,Bing Maps,street
HIDDEN VALLEY CRESCENT NATURAL AREA,NATURAL AREA,PASSIVE AREA,,HIDDEN VALLEY RD,HIDDEN VALLEY RD,KITCHENER,ONTARIO,CANADA,43.4151016,-80.4185106,"HIDDEN VALLEY RD, KITCHENER, ONTARIO, CANADA","Hidden Valley Rd, Kitchener, ON N2C, Canada",,Bing Maps,street
HIDDEN VALLEY CRESCENT PARK - SWP,OPEN SPACE,OPEN SPACE/SWM,,HIDDEN VALLEY CRESCENT,HIDDEN VALLEY CRESCENT,KITCHENER,ONTARIO,CANADA,43.4139044,-80.4190148,"HIDDEN VALLEY CRESCENT, KITCHENER, ONTARIO, CANADA","Hidden Valley Crescent, Kitchener, ON N2C, Canada",,Bing Maps,street
IDLEWOOD CREEK - SWP#B,OPEN SPACE,OPEN SPACE/SWM,895,FAIRWAY RD N,895 FAIRWAY RD N,KITCHENER,ONTARIO,CANADA,43.4287407,-80.4319771,"FAIRWAY RD N, KITCHENER, ONTARIO, CANADA","Fairway Rd N, Kitchener, ON N2A, Canada",,Bing Maps,street
IDLEWOOD PARK - SWP,OPEN SPACE,OPEN SPACE/SWM,,RIVER RD E,RIVER RD E,KITCHENER,ONTARIO,CANADA,43.4581692,-80.4527454,"RIVER RD E, KITCHENER, ONTARIO, CANADA","River Rd E, Kitchener, ON N2B, Canada",,Bing Maps,street
WESTCHESTER PARK - SWP,OPEN SPACE,OPEN SPACE/SWM,173,WESTCHESTER DR,173 WESTCHESTER DR,KITCHENER,ONTARIO,CANADA,43.4614834,-80.433051,"WESTCHESTER DR, KITCHENER, ONTARIO, CANADA","Westchester Dr, Kitchener, ON N2B, Canada",,Bing Maps,street
KOLB VALLEY - SWP#B,OPEN SPACE,OPEN SPACE/SWM,402,OTTERBEIN RD,402 OTTERBEIN RD,KITCHENER,ONTARIO,CANADA,43.4661391,-80.4304205,"OTTERBEIN RD, KITCHENER, ONTARIO, CANADA","Otterbein Rd, Kitchener, ON N2B, Canada",,Bing Maps,street
STANLEY PARK OPTIMIST NATURAL AREA - SWP,OPEN SPACE,OPEN SPACE/SWM,2500,VICTORIA ST N,2500 VICTORIA ST N,KITCHENER,ONTARIO,CANADA,43.4591372,-80.4807615,"VICTORIA ST N, KITCHENER, ONTARIO, CANADA","Victoria St N, Kitchener, ON N2H, Canada",,Bing Maps,street
MARISA PARK - SWP,OPEN SPACE,OPEN SPACE/SWM,63,MARISA ST,63 MARISA ST,KITCHENER,ONTARIO,CANADA,43.4775503,-80.4679444,"MARISA ST, KITCHENER, ONTARIO, CANADA","Marisa St, Kitchener, ON N2K, Canada",,Bing Maps,street
FALCONRIDGE DRIVE NATURAL AREA,NATURAL AREA,OPEN SPACE/WETLAND,,FALCONRIDGE DR,FALCONRIDGE DR,KITCHENER,ONTARIO,CANADA,43.4962255,-80.4733095,"FALCONRIDGE DR, KITCHENER, ONTARIO, CANADA","Falconridge Dr, Kitchener, ON N2K, Canada",,Bing Maps,street
BATTLER ROAD GREENWAY,GREENWAY,OPEN SPACE/TRAIL,,OLD HURON RD,OLD HURON RD,KITCHENER,ONTARIO,CANADA,43.3950465,-80.4615035,"OLD HURON RD, KITCHENER, ONTARIO, CANADA","Old Huron Rd, Kitchener, ON N2R, Canada",,Bing Maps,street
KOLB VALLEY - SWP#A,OPEN SPACE,OPEN SPACE/SWM,643,MANCHESTER RD,643 MANCHESTER RD,KITCHENER,ONTARIO,CANADA,43.459171,-80.4543665,"MANCHESTER RD, KITCHENER, ONTARIO, CANADA","Manchester Rd, Kitchener, ON N2B, Canada",,Bing Maps,street
SPRINGMOUNT PARK NATURAL AREA - SWP#A,OPEN SPACE,OPEN SPACE/SWM,323,EDENBRIDGE PL,323 EDENBRIDGE PL,KITCHENER,ONTARIO,CANADA,43.4472677,-80.432067,"EDENBRIDGE PL, KITCHENER, ONTARIO, CANADA","Edenbridge Pl, Kitchener, ON N2A, Canada",,Bing Maps,street
SPRINGMOUNT PARK NATURAL AREA - SWP#B,OPEN SPACE,OPEN SPACE/SWM,190,OLD CHICOPEE DR,190 OLD CHICOPEE DR,KITCHENER,ONTARIO,CANADA,43.4449259,-80.4329659,"OLD CHICOPEE DR, KITCHENER, ONTARIO, CANADA","Old Chicopee Dr, Kitchener, ON N2A, Canada",,Bing Maps,street
SPRINGMOUNT PARK NATURAL AREA - SWP#C,OPEN SPACE,OPEN SPACE/SWM,138,BRIARMEADOW PL,138 BRIARMEADOW PL,KITCHENER,ONTARIO,CANADA,43.443927,-80.426861,"BRIARMEADOW PL, KITCHENER, ONTARIO, CANADA","Briarmeadow Pl, Kitchener, ON N2A, Canada",,Bing Maps,street
TOPPER WOODS - SWP,OPEN SPACE,OPEN SPACE/SWM,404,DOON SOUTH DR,404 DOON SOUTH DR,KITCHENER,ONTARIO,CANADA,43.3762162,-80.4338862,"DOON SOUTH DR, KITCHENER, ONTARIO, CANADA","Doon South Dr, Kitchener, ON N2P, Canada",,Bing Maps,street
WATERFORD COURT - SWP,OPEN SPACE,OPEN SPACE/SWM,30,PINE VALLEY DR,30 PINE VALLEY DR,KITCHENER,ONTARIO,CANADA,43.3855205,-80.4321548,"PINE VALLEY DR, KITCHENER, ONTARIO, CANADA","Pine Valley Dr, Kitchener, ON N2P, Canada",,Bing Maps,street
WINDRUSH PARK - SWP,OPEN SPACE,OPEN SPACE/SWM,190,WINDRUSH TRAIL,190 WINDRUSH TRAIL,KITCHENER,ONTARIO,CANADA,43.3819643,-80.4214349,"WINDRUSH TRAIL, KITCHENER, ONTARIO, CANADA","Windrush Trail, Kitchener, ON N2P, Canada",,Bing Maps,street
KOLB PARK - SWP,OPEN SPACE,OPEN SPACE/SWM,235,CENTENNIAL CRT,235 CENTENNIAL CRT,KITCHENER,ONTARIO,CANADA,43.4756283,-80.4280588,"CENTENNIAL CRT, KITCHENER, ONTARIO, CANADA","Centennial Crt, Kitchener, ON N2B, Canada",,Bing Maps,street
SUMMERSIDE WOODS PARK - SWP,OPEN SPACE,OPEN SPACE/SWM,1275,VICTORIA ST,1275 VICTORIA ST,KITCHENER,ONTARIO,CANADA,43.446906,-80.5041527,"VICTORIA ST, KITCHENER, ONTARIO, CANADA","Victoria St S, Kitchener, ON N2G, Canada",,Bing Maps,street
RESURRECTION PARK - SWP,OPEN SPACE,OPEN SPACE/SWM,71,RESURRECTION DR,71 RESURRECTION DR,KITCHENER,ONTARIO,CANADA,43.436847,-80.550293,"RESURRECTION DR, KITCHENER, ONTARIO, CANADA","Resurrection Dr, Kitchener, ON N2N, Canada",,Bing Maps,street
WESTMEADOW PARK - SWP,OPEN SPACE,OPEN SPACE/SWM,281,WESTMEADOW DR,281 WESTMEADOW DR,KITCHENER,ONTARIO,CANADA,43.4293075,-80.5471645,"WESTMEADOW DR, KITCHENER, ONTARIO, CANADA","Westmeadow Dr, Kitchener, ON N2N, Canada",,Bing Maps,street
WALDAU WOODS PARK - SWP,OPEN SPACE,OPEN SPACE/SWM,19,PENELOPE DR,19 PENELOPE DR,KITCHENER,ONTARIO,CANADA,43.420164,-80.5555145,"PENELOPE DR, KITCHENER, ONTARIO, CANADA","Penelope Dr, Kitchener, ON N2N, Canada",,Bing Maps,street
FOREST WEST PARK - SWP,OPEN SPACE,OPEN SPACE/SWM,155,HIGHVIEW DR,155 HIGHVIEW DR,KITCHENER,ONTARIO,CANADA,43.415577,-80.5478274,"HIGHVIEW DR, KITCHENER, ONTARIO, CANADA","Highview Dr, Kitchener, ON N2N, Canada",,Bing Maps,street
PARKVALE PARK,NATURAL AREA,OPEN SPACE/WOODLAND,275,PARKVALE DR,275 PARKVALE DR,KITCHENER,ONTARIO,CANADA,43.3890027,-80.4779947,"PARKVALE DR, KITCHENER, ONTARIO, CANADA","Parkvale Dr, Kitchener, ON N2R, Canada",,Bing Maps,street
STRASBURG CREEK - SWP#A,OPEN SPACE,OPEN SPACE/SWM,548,HURON RD,548 HURON RD,KITCHENER,ONTARIO,CANADA,43.3919706,-80.4664175,"HURON RD, KITCHENER, ONTARIO, CANADA","Huron Rd, Kitchener, ON N2R, Canada",,Bing Maps,street
KILKERRAN CRES - SWP,OPEN SPACE,OPEN SPACE/SWM,1891,KILKERRAN CRES,1891 KILKERRAN CRES,KITCHENER,ONTARIO,CANADA,43.3863259,-80.4564161,"KILKERRAN CRES, KITCHENER, ONTARIO, CANADA","Kilkerran Crescent, Kitchener, ON N2R, Canada",,Bing Maps,street
STRASBURG CREEK - SWP#B,OPEN SPACE,OPEN SPACE/SWM,1891,RUSH MEADOW ST,1891 RUSH MEADOW ST,KITCHENER,ONTARIO,CANADA,43.3898989,-80.4626102,"RUSH MEADOW ST, KITCHENER, ONTARIO, CANADA","Rush Meadow St, Kitchener, ON N2R, Canada",,Bing Maps,street
TILT'S BUSH  - SWP#B,OPEN SPACE,OPEN SPACE/SWM,139,BECHTEL DR,139 BECHTEL DR,KITCHENER,ONTARIO,CANADA,43.389975,-80.4447582,"BECHTEL DR, KITCHENER, ONTARIO, CANADA","Bechtel Dr, Kitchener, ON N2P, Canada",,Bing Maps,street
TILT'S BUSH - SWP#A,OPEN SPACE,OPEN SPACE/SWM,139,BECHTEL DR,139 BECHTEL DR,KITCHENER,ONTARIO,CANADA,43.389975,-80.4447582,"BECHTEL DR, KITCHENER, ONTARIO, CANADA","Bechtel Dr, Kitchener, ON N2P, Canada",,Bing Maps,street
FOREST CREEK DR - SWP,OPEN SPACE,OPEN SPACE/SWM,24,FOREST CREEK DR,24 FOREST CREEK DR,KITCHENER,ONTARIO,CANADA,43.3795521,-80.4415356,"FOREST CREEK DR, KITCHENER, ONTARIO, CANADA","Forest Creek Dr, Kitchener, ON N2R, Canada",,Bing Maps,street
THOMAS SLEE DR - SWP,OPEN SPACE,OPEN SPACE/SWM,870,THOMAS SLEE DR,870 THOMAS SLEE DR,KITCHENER,ONTARIO,CANADA,43.374953,-80.4362168,"THOMAS SLEE DR, KITCHENER, ONTARIO, CANADA","Thomas Slee Dr, Kitchener, ON N2P, Canada",,Bing Maps,street
PIONEER TOWER NATURAL AREA - SWP,OPEN SPACE,OPEN SPACE/SWM,310,LOOKOUT LANE,310 LOOKOUT LANE,KITCHENER,ONTARIO,CANADA,43.4046538,-80.4172672,"LOOKOUT LANE, KITCHENER, ONTARIO, CANADA","Lookout Lane, Kitchener, ON N2P, Canada",,Bing Maps,street
STRASBURG CREEK NORTH BRANCH - SWP,OPEN SPACE,OPEN SPACE/SWM,535,TRILLIUM DR,535 TRILLIUM DR,KITCHENER,ONTARIO,CANADA,43.4013993,-80.4671115,"TRILLIUM DR, KITCHENER, ONTARIO, CANADA","Trillium Dr, Kitchener, ON N2E, Canada",,Bing Maps,street
BUERKLE CRT - SWP,OPEN SPACE,OPEN SPACE/SWM,26,BUERKLE CRT,26 BUERKLE CRT,KITCHENER,ONTARIO,CANADA,43.386878,-80.4320047,"BUERKLE CRT, KITCHENER, ONTARIO, CANADA","Buerkle Crt, Kitchener, ON N2P, Canada",,Bing Maps,street
BLAIR CREEK - SWP#D,OPEN SPACE,OPEN SPACE/SWM,,BLAIR CREEK DR,BLAIR CREEK DR,KITCHENER,ONTARIO,CANADA,43.3717976,-80.4299264,"BLAIR CREEK DR, KITCHENER, ONTARIO, CANADA","Blair Creek Dr, Kitchener, ON N2P, Canada",,Bing Maps,street
BALZER GREENWAY EAST - SWP,OPEN SPACE,OPEN SPACE/SWM,255,FALLOWFIELD DR,255 FALLOWFIELD DR,KITCHENER,ONTARIO,CANADA,43.4168086,-80.4620654,"FALLOWFIELD DR, KITCHENER, ONTARIO, CANADA","Fallowfield Dr, Kitchener, ON N2C, Canada",,Bing Maps,street
GRAND RIVER NA - SWP,OPEN SPACE,OPEN SPACE/SWM,52,RIVER RIDGE ST,52 RIVER RIDGE ST,KITCHENER,ONTARIO,CANADA,43.4545943,-80.4038779,"RIVER RIDGE ST, KITCHENER, ONTARIO, CANADA","River Ridge St, Kitchener, ON N2A, Canada",,Bing Maps,street
GRAND RIVER NA - RIVER RIDGE - SWP,OPEN SPACE,OPEN SPACE/SWM,1270,OLD ZELLER DR,1270 OLD ZELLER DR,KITCHENER,ONTARIO,CANADA,43.4523576,-80.4074068,"OLD ZELLER DR, KITCHENER, ONTARIO, CANADA","Old Zeller Dr, Kitchener, ON N2A, Canada",,Bing Maps,street
DETWEILER PARK - SWP#A,OPEN SPACE,OPEN SPACE/SWM,45,WESTFOREST TRAIL,45 WESTFOREST TRAIL,KITCHENER,ONTARIO,CANADA,43.4312449,-80.544348,"WESTFOREST TRAIL, KITCHENER, ONTARIO, CANADA","Westforest Trail, Kitchener, ON N2N, Canada",,Bing Maps,street
DETWEILER PARK - SWP#B,OPEN SPACE,OPEN SPACE/SWM,471,WESTFOREST TRAIL,471 WESTFOREST TRAIL,KITCHENER,ONTARIO,CANADA,43.4312449,-80.544348,"WESTFOREST TRAIL, KITCHENER, ONTARIO, CANADA","Westforest Trail, Kitchener, ON N2N, Canada",,Bing Maps,street
DETWEILER PARK - SWP#C,OPEN SPACE,OPEN SPACE/SWM,465,WESTFOREST TRAIL,465 WESTFOREST TRAIL,KITCHENER,ONTARIO,CANADA,43.4312449,-80.544348,"WESTFOREST TRAIL, KITCHENER, ONTARIO, CANADA","Westforest Trail, Kitchener, ON N2N, Canada",,Bing Maps,street
HURON NATURAL AREA - SWP#B,OPEN SPACE,OPEN SPACE/SWM,801,TRILLIUM DR,801 TRILLIUM DR,KITCHENER,ONTARIO,CANADA,43.4013993,-80.4671115,"TRILLIUM DR, KITCHENER, ONTARIO, CANADA","Trillium Dr, Kitchener, ON N2E, Canada",,Bing Maps,street
HURON NATURAL AREA - SWP#A,OPEN SPACE,OPEN SPACE/SWM,801,TRILLIUM DR,801 TRILLIUM DR,KITCHENER,ONTARIO,CANADA,43.4013993,-80.4671115,"TRILLIUM DR, KITCHENER, ONTARIO, CANADA","Trillium Dr, Kitchener, ON N2E, Canada",,Bing Maps,street
SETTLERS GROVE PARK - SWP,OPEN SPACE,OPEN SPACE/SWM,150,PIONEER TOWER RD,150 PIONEER TOWER RD,KITCHENER,ONTARIO,CANADA,43.4061679,-80.4088027,"PIONEER TOWER RD, KITCHENER, ONTARIO, CANADA","Pioneer Tower Rd, Kitchener, ON N2P, Canada",,Bing Maps,street
TILT'S BUSH - SWP#C,OPEN SPACE,OPEN SPACE/SWM,139,BECHTEL DR,139 BECHTEL DR,KITCHENER,ONTARIO,CANADA,43.389975,-80.4447582,"BECHTEL DR, KITCHENER, ONTARIO, CANADA","Bechtel Dr, Kitchener, ON N2P, Canada",,Bing Maps,street
TILT'S BUSH - SWP#D,OPEN SPACE,OPEN SPACE/SWM,139,BECHTEL DR,139 BECHTEL DR,KITCHENER,ONTARIO,CANADA,43.389975,-80.4447582,"BECHTEL DR, KITCHENER, ONTARIO, CANADA","Bechtel Dr, Kitchener, ON N2P, Canada",,Bing Maps,street
VOISIN GREENWAY - SWP,OPEN SPACE,OPEN SPACE/SWM,1400,OTTAWA ST S,1400 OTTAWA ST S,KITCHENER,ONTARIO,CANADA,43.4371667,-80.476698,"OTTAWA ST S, KITCHENER, ONTARIO, CANADA","Ottawa St S, Kitchener, ON N2G, Canada",,Bing Maps,street
VOISIN CREEK GREENWAY,GREENWAY,OPEN SPACE/FLOODPLAIN,,STONYBROOK DR,STONYBROOK DR,KITCHENER,ONTARIO,CANADA,43.4249784,-80.5118177,"STONYBROOK DR, KITCHENER, ONTARIO, CANADA","Stonybrook Dr, Kitchener, ON N2M, Canada",,Bing Maps,street
IDLEWOOD CREEK - SWP#C,OPEN SPACE,OPEN SPACE/SWM,895,FAIRWAY RD N,895 FAIRWAY RD N,KITCHENER,ONTARIO,CANADA,43.4287407,-80.4319771,"FAIRWAY RD N, KITCHENER, ONTARIO, CANADA","Fairway Rd N, Kitchener, ON N2A, Canada",,Bing Maps,street
MIKE WAGNER GREEN (MILL ST),GREENWAY,OPEN SPACE/TRAIL,54,MILL ST,54 MILL ST,KITCHENER,ONTARIO,CANADA,43.4357643,-80.4856305,"MILL ST, KITCHENER, ONTARIO, CANADA","Mill St, Kitchener, ON N2M, Canada",,Bing Maps,street
DOON SOUTH CREEK NATURAL AREA 1,NATURAL AREA,PASSIVE AREA,,STAUFFER DR,STAUFFER DR,KITCHENER,ONTARIO,CANADA,43.3756489,-80.4448755,"STAUFFER DR, KITCHENER, ONTARIO, CANADA","Stauffer Dr, Kitchener, ON N2P, Canada",,Bing Maps,street
UPPER CANADA PARK - SWP,OPEN SPACE,OPEN SPACE/SWM,130,PIONEER DR,130 PIONEER DR,KITCHENER,ONTARIO,CANADA,43.3939,-80.4404702,"PIONEER DR, KITCHENER, ONTARIO, CANADA","Pioneer Dr, Kitchener, ON N2P, Canada",,Bing Maps,street
BORDEN CREEK GREENWAY,GREENWAY,PASSIVE AREA,,OTTAWA ST S,OTTAWA ST S,KITCHENER,ONTARIO,CANADA,43.4371667,-80.476698,"OTTAWA ST S, KITCHENER, ONTARIO, CANADA","Ottawa St S, Kitchener, ON N2G, Canada",,Bing Maps,street
FILSINGER PARK GREENWAY,GREENWAY,HYDRO CORRIDOR,,WESTMOUNT RD W,WESTMOUNT RD W,KITCHENER,ONTARIO,CANADA,43.4359032,-80.5143475,"WESTMOUNT RD W, KITCHENER, ONTARIO, CANADA","Westmount Rd W, Kitchener, ON N2M, Canada",,Bing Maps,street
FILSINGER PARK WEST NATURAL AREA,NATURAL AREA,HYDRO CORRIDOR,,WESTMOUNT RD W,WESTMOUNT RD W,KITCHENER,ONTARIO,CANADA,43.4359032,-80.5143475,"WESTMOUNT RD W, KITCHENER, ONTARIO, CANADA","Westmount Rd W, Kitchener, ON N2M, Canada",,Bing Maps,street
FOREST WEST PARK,NEIGHBOURHOOD PARK,OPEN SPACE/TRAIL,155,HIGHVIEW DR,155 HIGHVIEW DR,KITCHENER,ONTARIO,CANADA,43.415577,-80.5478274,"HIGHVIEW DR, KITCHENER, ONTARIO, CANADA","Highview Dr, Kitchener, ON N2N, Canada",,Bing Maps,street
FOREST WEST PARK (HYDRO),NEIGHBOURHOOD PARK,HYDRO CORRIDOR,,HIGHVIEW DR,HIGHVIEW DR,KITCHENER,ONTARIO,CANADA,43.415577,-80.5478274,"HIGHVIEW DR, KITCHENER, ONTARIO, CANADA","Highview Dr, Kitchener, ON N2N, Canada",,Bing Maps,street
HYDRO CORRIDOR TRAIL/STAUFFER COMMUNITY PARK,OPEN SPACE,PARK,,STAUFFER DR,STAUFFER DR,KITCHENER,ONTARIO,CANADA,43.3756489,-80.4448755,"STAUFFER DR, KITCHENER, ONTARIO, CANADA","Stauffer Dr, Kitchener, ON N2P, Canada",,Bing Maps,street
DODGE DRIVE - SWP#A,OPEN SPACE,OPEN SPACE/SWM,200,DODGE DR,200 DODGE DR,KITCHENER,ONTARIO,CANADA,43.3718112,-80.4271865,"DODGE DR, KITCHENER, ONTARIO, CANADA","Dodge Dr, Kitchener, ON N2P, Canada",,Bing Maps,street
HYDRO CORRIDOR TRAIL,OPEN SPACE,OPEN SPACE/TRAIL,85,BANFFSHIRE ST,85 BANFFSHIRE ST,KITCHENER,ONTARIO,CANADA,43.3872599,-80.4716274,"BANFFSHIRE ST, KITCHENER, ONTARIO, CANADA","Banffshire St, Kitchener, ON N2R, Canada",,Bing Maps,street
HYDRO CORRIDOR TRAIL,OPEN SPACE,PASSIVE AREA,85,BANFFSHIRE ST,85 BANFFSHIRE ST,KITCHENER,ONTARIO,CANADA,43.3872599,-80.4716274,"BANFFSHIRE ST, KITCHENER, ONTARIO, CANADA","Banffshire St, Kitchener, ON N2R, Canada",,Bing Maps,street
HYDRO CORRIDOR TRAIL,OPEN SPACE,OPEN SPACE/TRAIL,85,BANFFSHIRE ST,85 BANFFSHIRE ST,KITCHENER,ONTARIO,CANADA,43.3872599,-80.4716274,"BANFFSHIRE ST, KITCHENER, ONTARIO, CANADA","Banffshire St, Kitchener, ON N2R, Canada",,Bing Maps,street
HYDRO CORRIDOR TRAIL,OPEN SPACE,OPEN SPACE/TRAIL,,RIVER RD E,RIVER RD E,KITCHENER,ONTARIO,CANADA,43.4581692,-80.4527454,"RIVER RD E, KITCHENER, ONTARIO, CANADA","River Rd E, Kitchener, ON N2B, Canada",,Bing Maps,street
HYDRO CORRIDOR TRAIL,OPEN SPACE,OPEN SPACE/TRAIL,,RIVER RD E,RIVER RD E,KITCHENER,ONTARIO,CANADA,43.4581692,-80.4527454,"RIVER RD E, KITCHENER, ONTARIO, CANADA","River Rd E, Kitchener, ON N2B, Canada",,Bing Maps,street
HYDRO CORRIDOR TRAIL,OPEN SPACE,OPEN SPACE/TRAIL,,RIVER RD E,RIVER RD E,KITCHENER,ONTARIO,CANADA,43.4581692,-80.4527454,"RIVER RD E, KITCHENER, ONTARIO, CANADA","River Rd E, Kitchener, ON N2B, Canada",,Bing Maps,street
HYDRO CORRIDOR TRAIL,OPEN SPACE,OPEN SPACE/TRAIL,,RIVER RD E,RIVER RD E,KITCHENER,ONTARIO,CANADA,43.4581692,-80.4527454,"RIVER RD E, KITCHENER, ONTARIO, CANADA","River Rd E, Kitchener, ON N2B, Canada",,Bing Maps,street
HYDRO CORRIDOR TRAIL,OPEN SPACE,OPEN SPACE/TRAIL,,RIVER RD E,RIVER RD E,KITCHENER,ONTARIO,CANADA,43.4581692,-80.4527454,"RIVER RD E, KITCHENER, ONTARIO, CANADA","River Rd E, Kitchener, ON N2B, Canada",,Bing Maps,street
HYDRO CORRIDOR TRAIL,OPEN SPACE,OPEN SPACE/TRAIL,,RIVER RD E,RIVER RD E,KITCHENER,ONTARIO,CANADA,43.4581692,-80.4527454,"RIVER RD E, KITCHENER, ONTARIO, CANADA","River Rd E, Kitchener, ON N2B, Canada",,Bing Maps,street
HYDRO CORRIDOR TRAIL,OPEN SPACE,OPEN SPACE/TRAIL,,RIVER RD E,RIVER RD E,KITCHENER,ONTARIO,CANADA,43.4581692,-80.4527454,"RIVER RD E, KITCHENER, ONTARIO, CANADA","River Rd E, Kitchener, ON N2B, Canada",,Bing Maps,street
HYDRO CORRIDOR TRAIL,OPEN SPACE,OPEN SPACE/TRAIL,,RIVER RD E,RIVER RD E,KITCHENER,ONTARIO,CANADA,43.4581692,-80.4527454,"RIVER RD E, KITCHENER, ONTARIO, CANADA","River Rd E, Kitchener, ON N2B, Canada",,Bing Maps,street
HYDRO CORRIDOR TRAIL,OPEN SPACE,OPEN SPACE/TRAIL,,RIVER RD E,RIVER RD E,KITCHENER,ONTARIO,CANADA,43.4581692,-80.4527454,"RIVER RD E, KITCHENER, ONTARIO, CANADA","River Rd E, Kitchener, ON N2B, Canada",,Bing Maps,street
HYDRO CORRIDOR TRAIL,OPEN SPACE,OPEN SPACE/TRAIL,,RIVER RD E,RIVER RD E,KITCHENER,ONTARIO,CANADA,43.4581692,-80.4527454,"RIVER RD E, KITCHENER, ONTARIO, CANADA","River Rd E, Kitchener, ON N2B, Canada",,Bing Maps,street
HYDRO CORRIDOR TRAIL,OPEN SPACE,OPEN SPACE/TRAIL,,RIVER RD E,RIVER RD E,KITCHENER,ONTARIO,CANADA,43.4581692,-80.4527454,"RIVER RD E, KITCHENER, ONTARIO, CANADA","River Rd E, Kitchener, ON N2B, Canada",,Bing Maps,street
HYDRO CORRIDOR TRAIL,OPEN SPACE,OPEN SPACE/TRAIL,,GREEN WATER ST,GREEN WATER ST,KITCHENER,ONTARIO,CANADA,43.4551773,-80.5106128,"GREEN WATER ST, KITCHENER, ONTARIO, CANADA","Green St, Kitchener, ON N2G, Canada",,Bing Maps,street
HYDRO CORRIDOR TRAIL,OPEN SPACE,OPEN SPACE/TRAIL,,GREEN WATER ST,GREEN WATER ST,KITCHENER,ONTARIO,CANADA,43.4551773,-80.5106128,"GREEN WATER ST, KITCHENER, ONTARIO, CANADA","Green St, Kitchener, ON N2G, Canada",,Bing Maps,street
HYDRO CORRIDOR TRAIL,OPEN SPACE,OPEN SPACE/TRAIL,,GREEN WATER ST,GREEN WATER ST,KITCHENER,ONTARIO,CANADA,43.4551773,-80.5106128,"GREEN WATER ST, KITCHENER, ONTARIO, CANADA","Green St, Kitchener, ON N2G, Canada",,Bing Maps,street
HYDRO CORRIDOR TRAIL,OPEN SPACE,OPEN SPACE/TRAIL,,GREEN WATER ST,GREEN WATER ST,KITCHENER,ONTARIO,CANADA,43.4551773,-80.5106128,"GREEN WATER ST, KITCHENER, ONTARIO, CANADA","Green St, Kitchener, ON N2G, Canada",,Bing Maps,street
HYDRO CORRIDOR TRAIL,OPEN SPACE,OPEN SPACE/TRAIL,,GREEN WATER ST,GREEN WATER ST,KITCHENER,ONTARIO,CANADA,43.4551773,-80.5106128,"GREEN WATER ST, KITCHENER, ONTARIO, CANADA","Green St, Kitchener, ON N2G, Canada",,Bing Maps,street
HYDRO CORRIDOR TRAIL,OPEN SPACE,OPEN SPACE/TRAIL,,GREEN WATER ST,GREEN WATER ST,KITCHENER,ONTARIO,CANADA,43.4551773,-80.5106128,"GREEN WATER ST, KITCHENER, ONTARIO, CANADA","Green St, Kitchener, ON N2G, Canada",,Bing Maps,street
HYDRO CORRIDOR TRAIL,OPEN SPACE,HYDRO CORRIDOR,,GREEN WATER ST,GREEN WATER ST,KITCHENER,ONTARIO,CANADA,43.4551773,-80.5106128,"GREEN WATER ST, KITCHENER, ONTARIO, CANADA","Green St, Kitchener, ON N2G, Canada",,Bing Maps,street
FOREST HEIGHTS COMMUNITY TRAIL,OPEN SPACE,OPEN SPACE/TRAIL,238,DRIFTWOOD DR,238 DRIFTWOOD DR,KITCHENER,ONTARIO,CANADA,43.4178885,-80.5401276,"DRIFTWOOD DR, KITCHENER, ONTARIO, CANADA","Driftwood Dr, Kitchener, ON N2N, Canada",,Bing Maps,street
FOREST HEIGHTS COMMUNITY TRAIL (HYDRO),OPEN SPACE,OPEN SPACE/TRAIL,,DRIFTWOOD DR,DRIFTWOOD DR,KITCHENER,ONTARIO,CANADA,43.4178885,-80.5401276,"DRIFTWOOD DR, KITCHENER, ONTARIO, CANADA","Driftwood Dr, Kitchener, ON N2N, Canada",,Bing Maps,street
FOREST HEIGHTS COMMUNITY TRAIL (HYDRO),OPEN SPACE,OPEN SPACE/TRAIL,,DRIFTWOOD DR,DRIFTWOOD DR,KITCHENER,ONTARIO,CANADA,43.4178885,-80.5401276,"DRIFTWOOD DR, KITCHENER, ONTARIO, CANADA","Driftwood Dr, Kitchener, ON N2N, Canada",,Bing Maps,street
FOREST HEIGHTS COMMUNITY TRAIL (HYDRO),OPEN SPACE,OPEN SPACE/TRAIL,,ROYAL ORCHARD DR,ROYAL ORCHARD DR,KITCHENER,ONTARIO,CANADA,43.415522,-80.532271,"ROYAL ORCHARD DR, KITCHENER, ONTARIO, CANADA","Royal Orchard Dr, Kitchener, ON N2N, Canada",,Bing Maps,street
FOREST HEIGHTS COMMUNITY TRAIL (HYDRO),OPEN SPACE,OPEN SPACE/TRAIL,,ROYAL ORCHARD DR,ROYAL ORCHARD DR,KITCHENER,ONTARIO,CANADA,43.415522,-80.532271,"ROYAL ORCHARD DR, KITCHENER, ONTARIO, CANADA","Royal Orchard Dr, Kitchener, ON N2N, Canada",,Bing Maps,street
BORDEN WETLANDS SWP#A,OPEN SPACE,OPEN SPACE/SWM,60,COPPER LEAF ST,60 COPPER LEAF ST,KITCHENER,ONTARIO,CANADA,43.4039915,-80.507721,"COPPER LEAF ST, KITCHENER, ONTARIO, CANADA","Copper Leaf St, Kitchener, ON N2E, Canada",,Bing Maps,street
BORDEN WETLANDS SWP#B,OPEN SPACE,OPEN SPACE/SWM,1085,FISCHER HALLMAN RD,1085 FISCHER HALLMAN RD,KITCHENER,ONTARIO,CANADA,43.4213466,-80.5164913,"FISCHER HALLMAN RD, KITCHENER, ONTARIO, CANADA","Fischer Hallman Rd, Kitchener, ON N2M, Canada",,Bing Maps,street
BORDEN WETLANDS SWP#C,OPEN SPACE,OPEN SPACE/SWM,,COTTON GRASS ST,COTTON GRASS ST,KITCHENER,ONTARIO,CANADA,43.4062319,-80.5056333,"COTTON GRASS ST, KITCHENER, ONTARIO, CANADA","Cotton Grass St, Kitchener, ON N2E, Canada",,Bing Maps,street
BORDEN WETLANDS SWP#D,OPEN SPACE,OPEN SPACE/SWM,168,BUSH CLOVER CRES,168 BUSH CLOVER CRES,KITCHENER,ONTARIO,CANADA,43.4101219,-80.5094973,"BUSH CLOVER CRES, KITCHENER, ONTARIO, CANADA","Bush Clover Crescent, Kitchener, ON N2E, Canada",,Bing Maps,street
KOLB VALLEY NATURAL AREA,GREENWAY,OPEN SPACE,,ROTHSAY AVE TO OTTAWA ST N,ROTHSAY AVE TO OTTAWA ST N,KITCHENER,ONTARIO,CANADA,43.4439711,-80.4674706,"ROTHSAY AVE TO OTTAWA ST N, KITCHENER, ONTARIO, CANADA","Ottawa St N, Kitchener, ON N2H, Canada",,Bing Maps,street
HIDDEN VALLEY CRESCENT PARK,NEIGHBOURHOOD PARK,PARK,2100,HIDDEN VALLEY CRESCENT,2100 HIDDEN VALLEY CRESCENT,KITCHENER,ONTARIO,CANADA,43.4139044,-80.4190148,"HIDDEN VALLEY CRESCENT, KITCHENER, ONTARIO, CANADA","Hidden Valley Crescent, Kitchener, ON N2C, Canada",,Bing Maps,street
HOMER WATSON BLVD - SWP,OPEN SPACE,OPEN SPACE/SWM,155,BULLOCK ST,155 BULLOCK ST,KITCHENER,ONTARIO,CANADA,43.40643,-80.4552266,"BULLOCK ST, KITCHENER, ONTARIO, CANADA","Bullock St, Kitchener, ON N2C, Canada",,Bing Maps,street
BALZER GREENWAY EAST NATURAL AREA,GREENWAY,OPEN SPACE/WETLAND,255,FALLOWFIELD DR,255 FALLOWFIELD DR,KITCHENER,ONTARIO,CANADA,43.4168086,-80.4620654,"FALLOWFIELD DR, KITCHENER, ONTARIO, CANADA","Fallowfield Dr, Kitchener, ON N2C, Canada",,Bing Maps,street
RBJ SCHLEGEL PARK,DISTRICT PARK,MAJOR SPORTSFIELD,1664,HURON RD,1664 HURON RD,KITCHENER,ONTARIO,CANADA,43.3919706,-80.4664175,"HURON RD, KITCHENER, ONTARIO, CANADA","Huron Rd, Kitchener, ON N2R, Canada",,Bing Maps,street
RADDATZ PARK,NEIGHBOURHOOD PARK,PASSIVE AREA,110,GAGE AVE,110 GAGE AVE,KITCHENER,ONTARIO,CANADA,43.447291,-80.5144295,"GAGE AVE, KITCHENER, ONTARIO, CANADA","Gage Ave, Kitchener, ON N2M, Canada",,Bing Maps,street
WESTWOOD PARK,NEIGHBOURHOOD PARK,PLAY AREA,175,WESTWOOD DR,175 WESTWOOD DR,KITCHENER,ONTARIO,CANADA,43.4450149,-80.5288515,"WESTWOOD DR, KITCHENER, ONTARIO, CANADA","Westwood Dr, Kitchener, ON N2M, Canada",,Bing Maps,street
WESTWOOD PARK NATURAL AREA,NATURAL AREA,OPEN SPACE/WOODLAND,,WESTWOOD DR,WESTWOOD DR,KITCHENER,ONTARIO,CANADA,43.4450149,-80.5288515,"WESTWOOD DR, KITCHENER, ONTARIO, CANADA","Westwood Dr, Kitchener, ON N2M, Canada",,Bing Maps,street
DODGE DRIVE - SWP#B,OPEN SPACE,OPEN SPACE/SWM,455,BLAIR CREEK DR,455 BLAIR CREEK DR,KITCHENER,ONTARIO,CANADA,43.3717976,-80.4299264,"BLAIR CREEK DR, KITCHENER, ONTARIO, CANADA","Blair Creek Dr, Kitchener, ON N2P, Canada",,Bing Maps,street
DOON SOUTH PARK NATURAL AREA,NATURAL AREA,TO INPUT,537,BLAIR CREEK DR,537 BLAIR CREEK DR,KITCHENER,ONTARIO,CANADA,43.3717976,-80.4299264,"BLAIR CREEK DR, KITCHENER, ONTARIO, CANADA","Blair Creek Dr, Kitchener, ON N2P, Canada",,Bing Maps,street
BIEHN DR - SWP,OPEN SPACE,OPEN SPACE/SWM,,BIEHN DR,BIEHN DR,KITCHENER,ONTARIO,CANADA,43.3960229,-80.4554545,"BIEHN DR, KITCHENER, ONTARIO, CANADA","Biehn Dr, Kitchener, ON N2R, Canada",,Bing Maps,street
MAXWELL DR - SWP,OPEN SPACE,OPEN SPACE/SWM,127,BIEHN DR,127 BIEHN DR,KITCHENER,ONTARIO,CANADA,43.3960229,-80.4554545,"BIEHN DR, KITCHENER, ONTARIO, CANADA","Biehn Dr, Kitchener, ON N2R, Canada",,Bing Maps,street
DOON CREEK NA - SWP,OPEN SPACE,OPEN SPACE/SWM,553,DOON SOUTH DR,553 DOON SOUTH DR,KITCHENER,ONTARIO,CANADA,43.3762162,-80.4338862,"DOON SOUTH DR, KITCHENER, ONTARIO, CANADA","Doon South Dr, Kitchener, ON N2P, Canada",,Bing Maps,street
KNOX CRT - SWP,OPEN SPACE,OPEN SPACE/SWM,53,KNOX CRT,53 KNOX CRT,KITCHENER,ONTARIO,CANADA,43.3809223,-80.4359116,"KNOX CRT, KITCHENER, ONTARIO, CANADA","Knox Crt, Kitchener, ON N2P, Canada",,Bing Maps,street
RIDGEMERE ST - SWP,OPEN SPACE,OPEN SPACE/SWM,247,PINE VALLEY DR,247 PINE VALLEY DR,KITCHENER,ONTARIO,CANADA,43.3855205,-80.4321548,"PINE VALLEY DR, KITCHENER, ONTARIO, CANADA","Pine Valley Dr, Kitchener, ON N2P, Canada",,Bing Maps,street
PINE VALLEY DR - SWP,OPEN SPACE,OPEN SPACE/SWM,125,PINE VALLEY DR,125 PINE VALLEY DR,KITCHENER,ONTARIO,CANADA,43.3855205,-80.4321548,"PINE VALLEY DR, KITCHENER, ONTARIO, CANADA","Pine Valley Dr, Kitchener, ON N2P, Canada",,Bing Maps,street
DOON MILLS DR - SWP,OPEN SPACE,OPEN SPACE/SWM,111,DOON MILLS DR,111 DOON MILLS DR,KITCHENER,ONTARIO,CANADA,43.3852262,-80.4306431,"DOON MILLS DR, KITCHENER, ONTARIO, CANADA","Doon Mills Dr, Kitchener, ON N2P, Canada",,Bing Maps,street
GRAND RIVER NATURAL AREA - PETRIFYING SPRING,NATURAL AREA,OPEN SPACE/WOODLAND,875,WABANAKI DR,875 WABANAKI DR,KITCHENER,ONTARIO,CANADA,43.421712,-80.436133,"WABANAKI DR, KITCHENER, ONTARIO, CANADA","Wabanaki Dr, Kitchener, ON N2C, Canada",,Bing Maps,street
GILDNER GREEN,GREEN (PARKETTE),PASSIVE AREA,29,EDEN AVE,29 EDEN AVE,KITCHENER,ONTARIO,CANADA,43.453956,-80.5170393,"EDEN AVE, KITCHENER, ONTARIO, CANADA","Eden Ave, Kitchener, ON N2G, Canada",,Bing Maps,street
TYSON PARK,NEIGHBOURHOOD PARK,FACILITY PROPERTY,20,TYSON DR,20 TYSON DR,KITCHENER,ONTARIO,CANADA,43.4828487,-80.4783307,"TYSON DR, KITCHENER, ONTARIO, CANADA","Tyson Dr, Kitchener, ON N2K, Canada",,Bing Maps,street
WOODSIDE GREEN,GREEN,PASSIVE AREA,,QUEEN ST S,QUEEN ST S,KITCHENER,ONTARIO,CANADA,43.4441281,-80.4950451,"QUEEN ST S, KITCHENER, ONTARIO, CANADA","Queen St S, Kitchener, ON N2G, Canada",,Bing Maps,street
ALPINE PARK,NEIGHBOURHOOD PARK,MINOR SPORTSFIELD,175,KINGSWOOD DR,175 KINGSWOOD DR,KITCHENER,ONTARIO,CANADA,43.4208041,-80.4749999,"KINGSWOOD DR, KITCHENER, ONTARIO, CANADA","Kingswood Dr, Kitchener, ON N2E, Canada",,Bing Maps,street
CEDAR CREST PARK NATURAL AREA,NATURAL AREA,TO INPUT,92,CEDAR CREST ST,92 CEDAR CREST ST,KITCHENER,ONTARIO,CANADA,43.4130305,-80.5414338,"CEDAR CREST ST, KITCHENER, ONTARIO, CANADA","Cedar Crest St, Kitchener, ON N2N, Canada",,Bing Maps,street
COUNTRYSTONE PARK NATURAL AREA,NATURAL AREA,TO INPUT,1086,COUNTRYSTONE DR,1086 COUNTRYSTONE DR,KITCHENER,ONTARIO,CANADA,43.4376424,-80.5530452,"COUNTRYSTONE DR, KITCHENER, ONTARIO, CANADA","Countrystone Dr, Kitchener, ON N2N, Canada",,Bing Maps,street
DEER RIDGE PARK,NEIGHBOURHOOD PARK,TO INPUT,471,DEER RIDGE DR,471 DEER RIDGE DR,KITCHENER,ONTARIO,CANADA,43.4028885,-80.4170705,"DEER RIDGE DR, KITCHENER, ONTARIO, CANADA","Deer Ridge Dr, Kitchener, ON N2P, Canada",,Bing Maps,street
DOON SOUTH PARK,NEIGHBOURHOOD PARK,TO INPUT,537,BLAIR CREEK DR,537 BLAIR CREEK DR,KITCHENER,ONTARIO,CANADA,43.3717976,-80.4299264,"BLAIR CREEK DR, KITCHENER, ONTARIO, CANADA","Blair Creek Dr, Kitchener, ON N2P, Canada",,Bing Maps,street
EASTFOREST PARK NATURAL AREA,NATURAL AREA,OPEN SPACE/WOODLAND,140,EASTFOREST TRAIL,140 EASTFOREST TRAIL,KITCHENER,ONTARIO,CANADA,43.4328474,-80.538877,"EASTFOREST TRAIL, KITCHENER, ONTARIO, CANADA","Eastforest Trail, Kitchener, ON N2N, Canada",,Bing Maps,street
FILSINGER PARK GREENWAY,GREENWAY,TO INPUT,,WESTMOUNT RD W,WESTMOUNT RD W,KITCHENER,ONTARIO,CANADA,43.4359032,-80.5143475,"WESTMOUNT RD W, KITCHENER, ONTARIO, CANADA","Westmount Rd W, Kitchener, ON N2M, Canada",,Bing Maps,street
FILSINGER PARK GREENWAY,GREENWAY,TO INPUT,,WESTMOUNT RD W,WESTMOUNT RD W,KITCHENER,ONTARIO,CANADA,43.4359032,-80.5143475,"WESTMOUNT RD W, KITCHENER, ONTARIO, CANADA","Westmount Rd W, Kitchener, ON N2M, Canada",,Bing Maps,street
WILSON PARK,DISTRICT PARK,TO INPUT,72,WILSON AVE,72 WILSON AVE,KITCHENER,ONTARIO,CANADA,43.428726,-80.4590555,"WILSON AVE, KITCHENER, ONTARIO, CANADA","Wilson Ave, Kitchener, ON N2C, Canada",,Bing Maps,street
WILSON PARK,DISTRICT PARK,TO INPUT,72,WILSON AVE,72 WILSON AVE,KITCHENER,ONTARIO,CANADA,43.428726,-80.4590555,"WILSON AVE, KITCHENER, ONTARIO, CANADA","Wilson Ave, Kitchener, ON N2C, Canada",,Bing Maps,street
WESTHEIGHTS PARK,NEIGHBOURHOOD PARK,TO INPUT,401,WESTHEIGHTS DR,401 WESTHEIGHTS DR,KITCHENER,ONTARIO,CANADA,43.4282645,-80.5306159,"WESTHEIGHTS DR, KITCHENER, ONTARIO, CANADA","Westheights Dr, Kitchener, ON N2N, Canada",,Bing Maps,street
DOON VILLAGE GREEN,GREEN,OPEN SPACE/TRAIL,135,PIONEER DR,135 PIONEER DR,KITCHENER,ONTARIO,CANADA,43.3939,-80.4404702,"PIONEER DR, KITCHENER, ONTARIO, CANADA","Pioneer Dr, Kitchener, ON N2P, Canada",,Bing Maps,street
BIEHN PARK,NEIGHBOURHOOD PARK,MINOR SPORTSFIELD,135,PIONEER DR,135 PIONEER DR,KITCHENER,ONTARIO,CANADA,43.3939,-80.4404702,"PIONEER DR, KITCHENER, ONTARIO, CANADA","Pioneer Dr, Kitchener, ON N2P, Canada",,Bing Maps,street
UPPER CANADA PARK NATURAL AREA,DISTRICT PARK,TO INPUT,120,PIONEER DR,120 PIONEER DR,KITCHENER,ONTARIO,CANADA,43.3939,-80.4404702,"PIONEER DR, KITCHENER, ONTARIO, CANADA","Pioneer Dr, Kitchener, ON N2P, Canada",,Bing Maps,street
TRAILVIEW PARK,NEIGHBOURHOOD PARK,TO INPUT,21,TRAILVIEW DRIVE,21 TRAILVIEW DRIVE,KITCHENER,ONTARIO,CANADA,43.4266808,-80.5345236,"TRAILVIEW DRIVE, KITCHENER, ONTARIO, CANADA","Trailview Dr, Kitchener, ON N2N, Canada",,Bing Maps,street
SPRINGMOUNT PARK,NEIGHBOURHOOD PARK,TO INPUT,27,SPRINGMOUNT DR,27 SPRINGMOUNT DR,KITCHENER,ONTARIO,CANADA,43.4478566,-80.4245268,"SPRINGMOUNT DR, KITCHENER, ONTARIO, CANADA","Springmount Dr, Kitchener, ON N2A, Canada",,Bing Maps,street
PAIGE PARK,NEIGHBOURHOOD PARK,TO INPUT,235,PAIGE PL,235 PAIGE PL,KITCHENER,ONTARIO,CANADA,43.4762793,-80.4685942,"PAIGE PL, KITCHENER, ONTARIO, CANADA","Paige Pl, Kitchener, ON N2K, Canada",,Bing Maps,street
MILLWOOD PARK NATURAL AREA,NEIGHBOURHOOD PARK,TO INPUT,130,MILLWOOD CRES,130 MILLWOOD CRES,KITCHENER,ONTARIO,CANADA,43.3978971,-80.4493905,"MILLWOOD CRES, KITCHENER, ONTARIO, CANADA","Millwood Crescent, Kitchener, ON N2P, Canada",,Bing Maps,street
BRIGADOON PARK,NEIGHBOURHOOD PARK,TO INPUT,127,BIEHN DR,127 BIEHN DR,KITCHENER,ONTARIO,CANADA,43.3960229,-80.4554545,"BIEHN DR, KITCHENER, ONTARIO, CANADA","Biehn Dr, Kitchener, ON N2R, Canada",,Bing Maps,street
LAKESIDE PARK,NEIGHBOURHOOD PARK,OPEN SPACE,140,LAKESIDE DR,140 LAKESIDE DR,KITCHENER,ONTARIO,CANADA,43.431812,-80.5015595,"LAKESIDE DR, KITCHENER, ONTARIO, CANADA","Lakeside Dr, Kitchener, ON N2M, Canada",,Bing Maps,street
KUNTZ PARK NATURAL AREA,NEIGHBOURHOOD PARK,TO INPUT,290,LOOKOUT LANE,290 LOOKOUT LANE,KITCHENER,ONTARIO,CANADA,43.4046538,-80.4172672,"LOOKOUT LANE, KITCHENER, ONTARIO, CANADA","Lookout Lane, Kitchener, ON N2P, Canada",,Bing Maps,street
IDLEWOOD PARK NATURAL AREA,NATURAL AREA,TO INPUT,5,THALER AVE,5 THALER AVE,KITCHENER,ONTARIO,CANADA,43.4342695,-80.4314161,"THALER AVE, KITCHENER, ONTARIO, CANADA","Thaler Ave, Kitchener, ON N2A, Canada",,Bing Maps,street
IDLEWOOD PARK,NATURAL AREA,TO INPUT,5,THALER AVE,5 THALER AVE,KITCHENER,ONTARIO,CANADA,43.4342695,-80.4314161,"THALER AVE, KITCHENER, ONTARIO, CANADA","Thaler Ave, Kitchener, ON N2A, Canada",,Bing Maps,street
DOON SOUTH CREEK TRAIL,OPEN SPACE,OPEN SPACE/TRAIL,,SOUTH CREEK DR,SOUTH CREEK DR,KITCHENER,ONTARIO,CANADA,43.3738601,-80.4410448,"SOUTH CREEK DR, KITCHENER, ONTARIO, CANADA","S Creek Dr, Kitchener, ON N2P, Canada",,Bing Maps,street
LYNNVALLEY PARK,NEIGHBOURHOOD PARK,OPEN SPACE/TRAIL,26,LYNNVALLEY CRES,26 LYNNVALLEY CRES,KITCHENER,ONTARIO,CANADA,43.4393434,-80.4233487,"LYNNVALLEY CRES, KITCHENER, ONTARIO, CANADA","Lynn Crt, Kitchener, ON N2A, Canada",,Bing Maps,street
LYNNVALLEY PARK - SWP,NATURAL AREA,OPEN SPACE/FLOODPLAIN,26,LYNNVALLEY CRES,26 LYNNVALLEY CRES,KITCHENER,ONTARIO,CANADA,43.4393434,-80.4233487,"LYNNVALLEY CRES, KITCHENER, ONTARIO, CANADA","Lynn Crt, Kitchener, ON N2A, Canada",,Bing Maps,street
BREITHAUPT PARK NATURAL AREA,DISTRICT PARK,MAJOR SPORTSFIELD,350,MARGARET AVE,350 MARGARET AVE,KITCHENER,ONTARIO,CANADA,43.4627354,-80.4937722,"MARGARET AVE, KITCHENER, ONTARIO, CANADA","Margaret Ave, Kitchener, ON N2H, Canada",,Bing Maps,street
BREITHAUPT PARK,DISTRICT PARK,MAJOR SPORTSFIELD,350,MARGARET AVE,350 MARGARET AVE,KITCHENER,ONTARIO,CANADA,43.4627354,-80.4937722,"MARGARET AVE, KITCHENER, ONTARIO, CANADA","Margaret Ave, Kitchener, ON N2H, Canada",,Bing Maps,street
BREITHAUPT PARK,DISTRICT PARK,MAJOR SPORTSFIELD,350,MARGARET AVE,350 MARGARET AVE,KITCHENER,ONTARIO,CANADA,43.4627354,-80.4937722,"MARGARET AVE, KITCHENER, ONTARIO, CANADA","Margaret Ave, Kitchener, ON N2H, Canada",,Bing Maps,street
WINDRUSH PARK,NEIGHBOURHOOD PARK,OPEN SPACE/TRAIL,155,WINDRUSH TRAIL,155 WINDRUSH TRAIL,KITCHENER,ONTARIO,CANADA,43.3819643,-80.4214349,"WINDRUSH TRAIL, KITCHENER, ONTARIO, CANADA","Windrush Trail, Kitchener, ON N2P, Canada",,Bing Maps,street
PARKVALE PARK,NEIGHBOURHOOD PARK,OPEN SPACE,275,PARKVALE DR,275 PARKVALE DR,KITCHENER,ONTARIO,CANADA,43.3890027,-80.4779947,"PARKVALE DR, KITCHENER, ONTARIO, CANADA","Parkvale Dr, Kitchener, ON N2R, Canada",,Bing Maps,street
